"id","address","city","state","zip","retailer_id","lat","long"
195500,"210 South Elizabeth St","Elizabeth","CO",80107,106,39.3585,-104.608
28958,"2100 Legacy Cir","Elizabeth","CO",80107,4,39.3594,-104.626
207975,"2100 Legacy Circle","Elizabeth","CO",80107,106,39.3597,-104.597
33241,"220 S. Elizabeth St.","Elizabeth","CO",80107,2,39.3602,-104.608
3531,"880 South Perry St.","Castle Rock","CO",80104,2,39.3626,-104.862
135341,"880 Kinner Street","Castle Rock","CO",80109,75,39.3643,-104.901
228312,"80 Plum Creek Pkwy","Castle Rock","CO",80104,115,39.3647,-104.862
37976,"355 S WILCOX ST","Castle Rock","CO",80104,5,39.366,-104.863
189558,"110 S Wilcox","Castle Rock","CO",80104,106,39.3681,-104.86
11,"133 Sam Walton Lane","Castle Rock","CO",80104,4,39.3722,-104.856
201709,"4714 Milestone La","Castle Rock","CO",80104,106,39.3722,-104.856
3469,"750 N Ridge Rd","Castle Rock","CO",80104,1,39.3756,-104.828
204233,"848 Ridge Road","Castle Rock","CO",80104,106,39.3763,-104.829
56472,"810 N WILCOX","CASTLE ROCK","CO",80104,28,39.3792,-104.86
208054,"2842 Front Street","Castle Rock","CO",80104,106,39.39,-104.858
198097,"2195 N Hwy 83","Franktown","CO",80116,106,39.3935,-104.755
161286,"3960 Limelight Ave","Castle Rock","CO",80109,85,39.4022,-104.88
161626,"3960 Limelight Ave","Castle Rock","CO",80109,86,39.4022,-104.88
203812,"4400 Front St","Castle Rock","CO",80104,106,39.4059,-104.861
157587,"4654 MILESTONE LN","CASTLE ROCK","CO",80104,82,39.4081,-104.862
583,"5010 Founders Pkwy","Castle Rock","CO",80108,3,39.4082,-104.857
227664,"312 Metzler Dr","Castle Rock","CO",80108,115,39.4091,-104.859
4138,"100 Founders Pkwy","Castle Rock","CO",80104,1,39.4112,-104.865
220003,"62 FOUNDERS PARKWAY","CASTLE ROCK","CO",80104,109,39.4117,-104.865
216913,"34 E Allen Street","Castle Rock","CO",80108,108,39.4118,-104.863
147656,"1360 NEW BEALE STREET","CASTLE ROCK","CO",80108,80,39.4119,-104.876
246541,"34 East Allen Street, #100","Castle Rock","CO",80108,137,39.4119,-104.862
208059,"5254 North Meadows Drive","Castle Rock","CO",80109,106,39.4121,-104.895
190290,"5050 Factory Shops Blvd","Castle Rock","CO",80108,106,39.413,-104.874
225535,"78 East Allen Street","Castle Rock","CO",80104,105,39.4135,-104.863
37697,"14 E ALLEN ST","Castle Rock","CO",80108,5,39.4136,-104.864
183904,"5642 Allen Way","Castle Rock","CO",80108,104,39.4136,-104.865
168000,"32 E. Allen Street","Castle Rock","CO",80108,97,39.4137,-104.863
148623,"800 New Memphis Court","Castle Rock","CO",80108,78,39.4141,-104.871
145114,"333 W Allen Street","Castle Rock","CO",80108,79,39.4142,-104.867
55341,"12285 S PARKER RD","PARKER","CO",80134,28,39.4351,-104.76
208057,"7007 E Bayou Gulch Rd","Parker","CO",80134,106,39.4363,-104.756
199077,"173 Bulldogger Rd","Bailey","CO",80421,106,39.4401,-105.45
163620,"OUTLETS AT CASTLEROCK 5050 FACTORY SHOPPES BL","CASTLE ROCK","CO",80104,93,39.4505,-104.869
254250,"5050 Factory Shops Blvd","Denver","CO",80108,157,39.4505,-104.869
55267,"19832 E HILLTOP RD","PARKER","CO",80134,28,39.4507,-104.681
5893,"7284 Lagae Rd","Castle Pines","CO",80108,1,39.4689,-104.882
38458,"7370 LAGAE RD","Castle Rock","CO",80108,5,39.469,-104.882
197121,"558 Castle Pines Parkway","Castle Rock","CO",80104,106,39.4719,-104.896
32503,"560 Castle Pines Pkwy","Castle Rock","CO",80108,2,39.4722,-104.875
38071,"13143 S PARKER RD","Parker","CO",80134,5,39.4777,-104.758
197313,"13097 S Parker Rd","Parker","CO",80134,106,39.4789,-104.759
22905,"12959 S Parker Rd","Parker","CO",80134,1,39.4797,-104.76
210722,"8357 North Rampart Range Road","Littleton","CO",80125,106,39.483,-105.073
30059,"8355 N. Rampart Range Road","Littleton","CO",80125,2,39.4846,-105.073
138922,"18811 Ponderosa Drive","Parker","CO",80134,75,39.4895,-104.845
208053,"22219 Hilltop Rd","Parker","CO",80138,106,39.4901,-104.728
192490,"9807 S Parker Rd","Parker","CO",80134,106,39.4996,-104.761
148774,"11481 S 20 Mile Rd","Parker","CO",80134,78,39.5102,-104.764
160838,"11267 Pikes Peak Dr","Parker,","CO",80138,84,39.5113,-104.762
225393,"11215 S. Parker Road","Parker","CO",80134,105,39.5115,-104.764
157501,"11183 A S PARKER RD","PARKER","CO",80134,82,39.5117,-104.765
167994,"11290 Twenty Mile Drive","Parker","CO",80134,97,39.5118,-104.77
805,"11150 S Twenty Mile Rd","Parker","CO",80134,3,39.5125,-104.772
202927,"11101 S Parker Rd","Parker","CO",80134,106,39.5132,-104.768
355,"11101 S Parker Rd","Parker","CO",80134,4,39.5133,-104.768
145101,"11111 South Parker Road","Parker","CO",80134,79,39.5144,-104.764
193461,"11017 S Parker Rd","Parker","CO",80134,106,39.5158,-104.764
2469,"11051 So. Parker Rd.","Parker","CO",80134,2,39.5162,-104.765
183248,"18701 E. Main St.","Parker","CO",80134,104,39.5185,-104.771
220907,"11011 S. PARKER ROAD","PARKER","CO",80134,109,39.5192,-104.767
178224,"10853 U.S. Hwy 285","Conifer","CO",80433,100,39.5194,-105.306
161325,"18625 Stage Run Rd","Parker","CO",80134,85,39.5199,-104.772
161665,"18625 Stage Run Rd","Parker","CO",80134,86,39.5199,-104.772
189957,"10875 US Hwy 285","Conifer","CO",80433,106,39.52,-105.306
208056,"5810 McArthur Ranch Rd","Highlands Ranch","CO",80124,106,39.5206,-104.923
208060,"10585 Mountain Vista Ridge","Highlands Ranch","CO",80126,106,39.521,-104.965
216882,"11153 S. Parker Rd","Parker","CO",80134,108,39.5218,-104.766
16022,"4000 Red Cedar Dr","Highlands Ranch","CO",80126,1,39.5255,-104.94
200505,"3996 Red Cedar Dr","Highlands Ranch","CO",80126,106,39.5258,-104.942
4080,"27152 Main Street","Conifer","CO",80433,2,39.5274,-105.305
35506,"4175 E WILDCAT RESERVE PKWY","Highlands Ranch","CO",80126,5,39.5285,-104.941
568,"10001 Commons St","Lone Tree","CO",80124,3,39.5341,-104.882
225718,"9994 Commons Street","Lone Tree","CO",80124,105,39.5344,-104.882
208058,"1991 Wildcat Reserve Pkwy","Highlands Ranch","CO",80129,106,39.5345,-105.014
54853,"16981 LINCOLN AVE","PARKER","CO",80134,28,39.5345,-104.792
147389,"10000 SOUTH TWENTY MILE ROAD","PARKER","CO",80134,80,39.5346,-104.773
7289,"2205 W Wildcat Reserve Pkwy","Highlands Ranch","CO",80129,1,39.5348,-105.014
246548,"9992 Commons St., #130","Lone tree","CO",80124,137,39.5352,-104.882
220781,"17051 E LINCOLN AVE","PARKER","CO",80134,109,39.5352,-104.79
5873,"17031 Lincoln Ave","Parker","CO",80134,1,39.5356,-104.791
205944,"12155 Lioness Way","Parker","CO",80134,106,39.5356,-104.848
210170,"17001 Lincoln Ave","Parker","CO",80134,106,39.5361,-104.792
196843,"2229 Wildcat Reserve Pky","Highlands Ranch","CO",80129,106,39.5362,-105.017
2778,"9229 E. Lincoln Ave","Lone Tree","CO",80129,2,39.5364,-104.884
55278,"11802 E OSWEGO ST","ENGLEWOOD","CO",80112,28,39.5364,-104.852
36968,"19028 LINCOLN AVE","Parker","CO",80134,5,39.5368,-104.769
148850,"10460 Park Meadows Dr","Littleton","CO",80124,78,39.5372,-104.873
221989,"9231 E LINCOLN AVE","LONE TREE","CO",80124,109,39.5373,-104.883
183693,"2209 W. Wildcat Reserve Parkway","Highlands Ranch","CO",80129,104,39.5373,-105.014
183308,"9500 Heritage Hills Circle","Lone Tree","CO",80124,104,39.5376,-104.879
190393,"9227 E Lincoln Ave","Littleton","CO",80124,106,39.5386,-104.884
216881,"9400 Heritage Hills Cir","Littleton","CO",80124,108,39.539,-104.884
177735,"9751 S. Parker Rd.","Parker","CO",80134,99,39.5392,-104.771
139850,"3520 Town Center Drive","Highlands Ranch","CO",80129,75,39.5397,-105.011
159211,"1265 SGT JON STILES DRIVE","HIGHLANDS RANCH","CO",80129,83,39.5397,-105.011
208055,"15655 Brookstone Drive","Parker","CO",80134,106,39.5404,-104.809
204327,"6654 Timberline Rd","Highlands Ranch","CO",80130,106,39.5412,-104.911
37115,"6650 TIMBERLINE RD","Highlands Ranch","CO",80130,5,39.5416,-104.913
179087,"9567 S. UNIVERSITY BLVD.","HIGHLANDS RANCH","CO",80126,83,39.5422,-104.943
195372,"9567 South University Blvd","Highlands Ranch","CO",80126,106,39.5422,-104.943
167975,"9579 S University Boulevard","Highlands Ranch","CO",80126,97,39.5422,-104.94
216874,"9563 South University Blvd.","Highlands Ranch","CO",80126,108,39.5426,-104.938
16876,"9551 S University Blvd","Highlands Ranch","CO",80126,1,39.5428,-104.945
116554,"9563 S. University Blvd., Ste. A","Highlands Ranch","CO",80126,57,39.543,-104.942
225436,"25597 Conifer Rd.","Conifer","CO",80433,105,39.543,-105.293
138055,"9401 South University Blvd","Highlands Ranch","CO",80126,75,39.5437,-104.969
14603,"25637 Conifer Rd","Conifer","CO",80433,1,39.544,-105.292
208061,"9375 Cresthill Lane","Highlands Ranch","CO",80130,106,39.5446,-104.933
91059,"9366 S Colorado Blvd","Highlands Ranch","CO",80126,48,39.5452,-104.944
222490,"9557 S UNIVERSITY BLVD","HIGHLANDS RANCH","CO",80126,109,39.5454,-104.946
35931,"9390 S UNIVERSITY BLVD","Highlands Ranch","CO",80126,5,39.5455,-104.945
246546,"9352 S. Colorado Blvd.","Highlands Ranch","CO",80126,137,39.5457,-104.944
225373,"9364 S. Colorado Blvd.","Highlands Ranch","CO",80126,105,39.5457,-104.944
216900,"1601 Mayberry Dr","Highlands Ranch","CO",80127,108,39.5458,-105.002
145120,"1200 Mayberry Drive","Highlands Ranch","CO",80129,79,39.546,-105.002
229817,"9385 South Colorado Blvd","Highlands Ranch","CO",80126,116,39.5462,-104.944
225468,"9338 S Dorchester St.","Highlands Ranch","CO",80129,105,39.5467,-104.999
178233,"9315 Dorchester St., Unit G-104","Highlands Ranch","CO",80129,100,39.5469,-105.001
50532,"9301 S PARKER ROAD AND E-470","PARKER","CO",80134,28,39.5473,-104.774
196693,"3506 Town Center Dr","Highlands Ranch","CO",80126,106,39.5476,-105.035
56541,"3520 TOWN CENTER DR","HIGHLANDS RANCH","CO",80129,28,39.5477,-105.036
222489,"9245 S. BROADWAY","HIGHLANDS RANCH","CO",80126,109,39.5483,-104.994
194829,"9245 S Broadway","Highlands Ranch","CO",80129,106,39.5484,-104.995
29248,"9255 S. Broadway","Highlands Ranch","CO",80129,2,39.5484,-104.992
230036,"9249 S Broadway Ste 700","Highlands Ranch","CO",80126,116,39.5486,-104.992
36797,"9141 S BROADWAY","Highlands Ranch","CO",80129,5,39.5498,-104.992
76,"1265 Sgt Jon Stiles Dr","Highlands Ranch","CO",80129,3,39.55,-105.006
138923,"9137 Westview Road","Littleton","CO",80124,75,39.5506,-104.897
188914,"9226 Park Meadows Dr","Lone Tree","CO",80124,106,39.5548,-104.884
163151,"9355 Park Meadows Drive","Littleton","CO",80124,91,39.5553,-104.883
163229,"9355 Park Meadows Drive","Littleton","CO",80124,92,39.5553,-104.883
167982,"9233 Park Meadows Drive","Lone Tree","CO",80124,97,39.5557,-104.882
251065,"9155 PARK MEADOWS DR.","LONE TREE","CO",80124,153,39.5558,-104.883
56534,"8808 S COLORADO BLVD","LITTLETON","CO",80126,28,39.5563,-104.942
196371,"8515 Park Meadows Ctr Dr","Littleton","CO",80124,106,39.5569,-104.883
160194,"8682 Park Meadows Center Dr Marketplace Meadows","Lone Tree,","CO",80124,84,39.5573,-104.874
91506,"8686 Park Meadows Center Drive","Littleton","CO",80124,46,39.558,-104.877
201342,"8820 American Way","Englewood","CO",80112,106,39.5583,-104.823
91665,"18414 Cottonwood Dr","Parker","CO",80138,46,39.5586,-104.777
183665,"18320 Cottonwood Dr.","Parker","CO",80138,104,39.5588,-104.777
2634,"8673 S Quebec St","Highlands Ranch","CO",80130,1,39.559,-104.907
54889,"8750 S YOSEMITE ST","LONE TREE","CO",80124,28,39.5591,-104.88
158234,"8695 PARK MEADOWS DR","LITTLETON","CO",80124,82,39.5598,-104.879
161011,"103 W Centennial Blvd","Highlands Ranch","CO",80129,85,39.5602,-104.991
161351,"103 W Centennial Blvd","Highlands Ranch","CO",80129,86,39.5602,-104.991
164289,"7155 BUSINESS CENTER DR","HIGHLANDS RANCH","CO",80130,94,39.5607,-104.905
254255,"8505 Park Meadows Center Drive","Littleton","CO",80124,157,39.5617,-104.879
409,"6675 Business Center Dr","Highlands Ranch","CO",80130,4,39.5624,-104.911
89612,"7817 Park Meadows Dr","Lone Tree","CO",80124,47,39.5624,-104.901
157511,"8440 S KIPLING PKWY","LITTLETON","CO",80127,82,39.5628,-105.108
225715,"8441 S. Yosemite Street","Lone Tree","CO",80124,105,39.5636,-104.883
148700,"8454 S Kipling Pkwy","Littleton","CO",80127,78,39.5636,-105.11
145093,"8477 S Yosemite Ave","Lone Tree","CO",80124,79,39.5637,-104.883
222503,"9956 W REMINGTON PLAZA","LITTLETON","CO",80127,109,39.5642,-105.108
216880,"9956 Remington","Littleton","CO",80128,108,39.5644,-105.107
196927,"9956 W. Remington Place","Littleton","CO",80127,106,39.5645,-105.108
221710,"8505 PARK MEADOWS CENTER","LITTLETON","CO",80124,109,39.5646,-104.877
225369,"9956 W. Remington Place","Littleton","CO",80128,105,39.5647,-105.108
190468,"2030 E County Line Rd","Littleton","CO",80126,106,39.5647,-104.962
110,"1950 E County Line Rd","Highlands Ranch","CO",80126,3,39.5652,-104.965
116549,"8331 Willow Street, Unit B","Lone Tree","CO",80124,57,39.5654,-104.888
246039,"8334 WILLOW ST","LONE TREE","CO",80124,138,39.5656,-104.886
24114,"8380 S COLORADO BLVD","HIGHLANDS RANCH","CO",80126,28,39.5659,-104.941
205707,"525 County Road 166","Parker","CO",80138,106,39.5659,-104.658
164049,"9505 E. COUNTY LINE ROAD","ENGLEWOOD","CO",80112,93,39.5661,-104.879
148446,"2070 E County Line Rd","Highlands Ranch","CO",80126,78,39.5662,-104.961
38870,"7443 W CHATFIELD AVE","Littleton","CO",80128,5,39.5662,-105.08
191464,"8223 S Quebec St","Englewood","CO",80112,106,39.5669,-104.907
184578,"8255 South Chester St.","Englewood","CO",80112,104,39.5672,-104.88
228292,"8225 S Chester St","Centennial","CO",80112,115,39.5674,-104.88
221711,"8223 S. QUEBEC STREET","CENTENNIAL","CO",80112,109,39.5675,-104.906
18063,"8200 S Holly St","Centennial","CO",80122,1,39.5675,-104.921
20492,"8200 So. Quebec","Englewood","CO",80111,2,39.5676,-104.904
158235,"8222 S UNIVERSITY BLVD","LITTLETON","CO",80122,82,39.5681,-104.959
35708,"8151 S QUEBEC ST","Englewood","CO",80112,5,39.5684,-104.904
195969,"8176 S Wadsworth Blvd","Littleton","CO",80128,106,39.5687,-105.083
227082,"8053 S Broadway","Littleton","CO",80122,115,39.569,-104.989
15938,"8126 S Wadsworth Blvd","Littleton","CO",80128,1,39.5692,-105.083
186972,"7941 S Broadway","Littleton","CO",80122,106,39.5726,-104.988
18104,"100 East Mineral Drive","Littleton","CO",80122,12,39.5729,-104.988
18032,"7901 S Broadway","Littleton","CO",80122,1,39.573,-104.989
178235,"S. Broadway & W. Mineral Ave., (NW Corner)","Littleton","CO",80122,100,39.5734,-104.989
33531,"181 W. Mineral Avenue","Littleton","CO",80120,2,39.5736,-104.99
217776,"100 EAST MINERAL DRIVE","LITTLETON","CO",80122,109,39.5737,-104.988
197314,"22775 E Aurora Pky","Aurora","CO",80016,106,39.5745,-104.723
15393,"22675 E. Aurora Pkwy","Aurora","CO",80016,2,39.5755,-104.725
8400,"7575 S University Blvd","Centennial","CO",80122,1,39.5792,-104.961
228381,"12482 W Ken Caryl Ave","Littleton","CO",80127,115,39.5792,-105.136
39944,"7510 S GARTRELL RD","Aurora","CO",80016,5,39.5795,-104.724
221904,"7301 S SANTE FE DRIVE","LITTLETON","CO",80120,109,39.5798,-105.026
183332,"7515 S. University Blvd.","Littleton","CO",80122,104,39.5799,-104.96
18280,"7500 So. Pierce","Littleton","CO",80123,2,39.58,-105.074
183256,"12512 W. Ken Caryl Ave.","Littleton","CO",80127,104,39.5801,-105.137
229793,"7523 South University Blvd.","Littleton","CO",80122,116,39.5802,-104.96
54783,"12532 W KEN CARYL AVE","LITTLETON","CO",80127,28,39.5803,-105.139
138261,"10380 East Arapahoe","Englewood","CO",80112,75,39.5805,-104.901
140152,"6712 South Potomac Street","Englewood","CO",80112,75,39.5805,-104.901
158553,"9425 EAST COUNTY LINE RD","ENGLEWOOD","CO",80112,83,39.5805,-104.901
55554,"3099 W MINERAL AVE","LITTLETON","CO",80120,28,39.5805,-105.029
33263,"12442 W. Ken Caryl Avenue","Littleton","CO",80127,2,39.5806,-105.135
225313,"8719 E. Dry Creek Road","Centennial","CO",80112,105,39.5807,-104.888
43,"8959 E DRY CREEK RD","Centennial","CO",80112,5,39.5808,-104.885
35946,"7496 S SIMMS ST","Littleton","CO",80127,5,39.5811,-105.128
511,"7400 S Gartrell Rd","Aurora","CO",80016,3,39.5811,-104.723
55563,"7451 S GARTRELL RD","AURORA","CO",80016,28,39.5813,-104.726
136294,"301 East County Line","Littleton","CO",80122,75,39.5814,-104.956
158761,"7460 S UNIVERSITY BLVD","LITTLETON","CO",80122,83,39.5814,-104.956
135817,"7480 South University Blvd.","Littleton","CO",80122,75,39.5814,-104.956
2875,"11747 W Ken Caryl Ave","Littleton","CO",80127,1,39.5817,-105.131
188047,"11757 W Ken Caryl Ave","Littleton","CO",80127,106,39.5817,-105.132
229839,"7456 South Simms St., Suite E","Littleton","CO",80127,116,39.5821,-105.128
157756,"7350 S. GARTRELL ROAD","AURORA","CO",80016,82,39.5825,-104.721
189775,"7410 S University Blvd","Centennial","CO",80122,106,39.5825,-104.96
167978,"7301 South Santa Fe Drive","Littleton","CO",80120,97,39.5826,-105.026
56653,"JORDEN RD @ BRONCOS PKWY","ENGLEWOOD","CO",80112,28,39.5842,-104.807
225367,"7301 S. Santa Fe Drive","Littleton","CO",80120,105,39.5845,-105.024
216886,"7301 S. Santa Fe Dr","Littleton","CO",80120,108,39.5859,-105.026
162269,"6901 S. Vine St.","Centennial","CO",80122,87,39.5913,-104.965
162682,"6901 S. Vine St.","Centennial","CO",80122,88,39.5913,-104.965
48237,"6780 South University Blvd.","Littleton","CO",80122,12,39.5914,-104.96
160907,"15800 E Briarwood Cir","Aurora,","CO",80016,84,39.5917,-104.803
140072,"9985 West Remington Place","Littleton","CO",80128,75,39.5918,-105.083
91187,"6853 South York Street, Suite 119","Centennial","CO",80122,48,39.592,-104.962
1049,"15700 E Briarwood Cir","Aurora","CO",80016,3,39.5927,-104.804
56474,"6802 S YOSEMITE ST","CENTENNIAL","CO",80112,28,39.5929,-104.888
2,"10900 E Briarwood Ave","Centennial","CO",80112,4,39.5931,-104.862
33639,"6767 S Clinton St","Englewood","CO",80112,3,39.5932,-104.882
221015,"6730 S PIERCE STREET","LITTLETON","CO",80123,109,39.5937,-105.071
2448,"6760 S Pierce St","Littleton","CO",80128,1,39.594,-105.073
225491,"10909 E. Arapahoe Place","Centennial","CO",80112,105,39.594,-104.827
219269,"CHERRY KNOLLS SHOPPING CENTER","LITTLETON","CO",80122,109,39.5941,-104.96
38244,"16440 E ARAPAHOE RD","Foxfield","CO",80016,5,39.5943,-104.797
10578,"5050 E Arapahoe Rd","Centennial","CO",80122,1,39.5945,-104.928
184095,"6710 S. Cornerstar Way","Aurora","CO",80016,104,39.5945,-104.805
225643,"16270 E. Arapahoe Road","Foxfield","CO",80016,105,39.5948,-104.8
160790,"6707 S Vine St, Ste. D","Centennial,","CO",80122,84,39.5949,-104.965
246537,"6710 S. Cornerstar Way Unit C","Aurora","CO",80016,137,39.5949,-104.802
53390,"8250 W COALMINE UNIT A","LITTLETON","CO",80123,28,39.595,-105.091
225675,"6703 South University Boulevard","Centennial","CO",80122,105,39.5951,-104.96
198116,"5270 East Arapahoe Rd","Littleton","CO",80122,106,39.5951,-104.927
189163,"8575 E Arapahoe Rd","Greenwood Village","CO",80112,106,39.5951,-104.889
216903,"2370 East Arapahoe","Centennial","CO",80122,108,39.5951,-104.957
29642,"7375 Arapahoe Rd.","Englewood","CO",80112,2,39.5951,-104.903
178232,"8547 E. Arapahoe Rd., #K","Greenwood Village","CO",80112,100,39.5951,-104.891
183374,"12073 E. Arapahoe Rd.","Centennial","CO",80112,104,39.5951,-104.849
163148,"8141 E. Arapahoe Road","Englewood","CO",80112,91,39.5951,-104.895
163226,"8141 E. Arapahoe Road","Englewood","CO",80112,92,39.5951,-104.895
145094,"9401 E Arapahoe Rd","Greenwood Village","CO",80112,79,39.5951,-104.879
246545,"8547 E. Arapahoe Road.","Greenwood Village","CO",80112,137,39.5951,-104.891
225476,"7465 E. Arapahoe Road","Centennial","CO",80012,105,39.5952,-104.902
239677,"8507 E. Arapahoe Road","Greenwood Village","CO",80112,121,39.5952,-104.891
167995,"6770 S. Cornerstar Way, Suite E","Aurora","CO",80016,97,39.5952,-104.802
187283,"6768 Coalmine Ave","Littleton","CO",80123,106,39.5952,-105.072
222914,"8575 E. ARAPAHOE RD","GREENWOOD VILLAGE","CO",80112,109,39.5952,-104.889
216885,"12023 E Arapahoe Rd","Centennial","CO",80112,108,39.5954,-104.85
230152,"12073 E. Arapahoe Rd, Unit 100","Centennial","CO",80112,116,39.5956,-104.849
197327,"12073 E Araphahoe Rd","Centennial","CO",80112,106,39.5956,-104.849
37563,"6789 W COAL MINE AVE","Littleton","CO",80123,5,39.5956,-105.072
230038,"6650 South Yosemite Street","Englewood","CO",80111,116,39.5956,-104.889
22755,"2281 E ARAPAHOE RD","Centennial","CO",80122,5,39.5957,-104.962
148631,"6646 S Parker Road","Aurora","CO",80016,78,39.5959,-104.803
186212,"9555 E Arapahoe Rd","Englewood","CO",80112,106,39.596,-104.878
161280,"6696 S Parker Rd","Aurora","CO",80016,85,39.5961,-104.798
161620,"6696 S Parker Rd","Aurora","CO",80016,86,39.5961,-104.798
177740,"8557 E. Arapahoe Rd. #B","Greenwood Village","CO",80112,99,39.5962,-104.891
116367,"9696 E. Arapahoe Rd.","Greenwood Village","CO",80112,57,39.5964,-104.876
56314,"6630 S YOSEMITE ST","ENGLEWOOD","CO",80111,28,39.5965,-104.889
650,"24250 E SMOKY HILL RD","Aurora","CO",80016,5,39.5965,-104.705
184283,"6570 S. Yosemite Street, Unit D","Greenwood Village","CO",80111,104,39.5971,-104.888
148035,"24505 E. WHEATLANDS PARKWAY","AURORA","CO",80016,80,39.5978,-104.703
188079,"6554 S Parker Rd","Aurora","CO",80016,106,39.5978,-104.803
146610,"9100 EAST PEAKVIEW AVENUE","GREENWOOD VILLAGE","CO",80111,80,39.5978,-104.884
52903,"6515 S. DAYTON","GREENWOOD VILLAGE","CO",80111,28,39.5984,-104.876
140660,"2397 West Belleview Ave","Littleton","CO",80120,75,39.5994,-105.004
12871,"6412 S Parker Rd","Aurora","CO",80016,1,39.5997,-104.805
225489,"23923 E. Prospect Avenue","Aurora","CO",80016,105,39.6006,-104.71
164169,"24101 A EAST ORCHARD ROAD","AURORA","CO",80016,94,39.6006,-104.713
158782,"24101 E. ORCHARD RD STE C","AURORA","CO",80016,83,39.6012,-104.739
148902,"6379 S Southlands Pkwy","Aurora","CO",80016,78,39.6017,-104.71
223390,"24112 EAST ORCHARD RD","AURORA","CO",80016,109,39.6026,-104.708
216899,"6200 South Main St","Aurora","CO",80016,108,39.6035,-104.712
178217,"24107 E. Commons Ave., Ste. 101","Aurora","CO",80016,100,39.6036,-104.707
89289,"6201 S Aurora Pkwy","Aurora","CO",80016,47,39.6036,-104.705
230296,"6232 S Parker Rd, Suite 400","Centennial","CO",80016,116,39.6038,-104.807
205691,"6295 S Main Street","Aurora","CO",80016,106,39.6045,-104.709
183831,"24100 E. Commons Ave.","Aurora","CO",80016,104,39.6045,-104.706
106,"6101 S Aurora Pkwy","Aurora","CO",80016,4,39.6061,-104.705
161279,"23955 E Plaza Ave","Aurora","CO",80016,85,39.6062,-104.709
161619,"23955 E Plaza Ave","Aurora","CO",80016,86,39.6062,-104.709
229880,"8246 W. Bowles Ave, Suite A","Littleton","CO",80123,116,39.607,-105.09
145112,"6000 South Gun Club Road","Aurora","CO",80016,79,39.6075,-104.717
160550,"5999 S Southlands Pkwy","Aurora,","CO",80016,84,39.6077,-104.705
22933,"6000 S Holly St","Greenwood Village","CO",80111,1,39.6077,-104.921
975,"13420 W Coal Mine Ave","Littleton","CO",80127,4,39.608,-105.15
7522,"20901 East Smoky Hill Road","Centennial","CO",80015,12,39.6082,-104.744
210720,"5910 South University","Greenwood Village","CO",80121,106,39.6083,-104.958
167976,"5910 South Holly Street","Greenwood Village","CO",80111,97,39.6086,-104.922
186656,"20941 E Smoky Hill Rd","Centennial","CO",80015,106,39.6092,-104.744
225312,"8246 W. Bowles Ave.","Littleton","CO",80123,105,39.6096,-105.089
228407,"8775 E Orchard Rd","Greenwood Village","CO",80111,115,39.6097,-104.888
35990,"5870 S KIPLING PKWY","Littleton","CO",80127,5,39.6099,-105.109
14142,"11601 West Bowles Avenue","Littleton","CO",80127,12,39.61,-105.129
18181,"3615 W Bowles Ave","Littleton","CO",80123,4,39.61,-105.035
198975,"5894 South Zang St.","Littleton","CO",80127,106,39.6102,-105.145
205170,"8081 E Orchard Rd","Greenwood Village","CO",80111,106,39.6107,-104.896
34,"9390 W Cross Dr","Littleton","CO",80123,3,39.6108,-105.102
254254,"8501 West Bowles Avenue","Littleton","CO",80123,157,39.6109,-105.095
221694,"8501 WEST BOWLES AVE","LITTLETON","CO",80123,109,39.611,-105.098
161313,"8035 W Bowles Ave","Littleton","CO",80123,85,39.6112,-105.085
161653,"8035 W Bowles Ave","Littleton","CO",80123,86,39.6112,-105.085
8390,"20153 E. Smoky Hill Rd.","Centennial","CO",80015,2,39.6112,-104.754
183564,"20209 E. Smoky Hill Rd.","Centennial","CO",80015,104,39.6112,-104.753
167979,"8501 West Bowles Avenue","Littleton","CO",80123,97,39.6115,-105.095
36506,"20051 E SMOKY HILL RD","Aurora","CO",80015,5,39.6121,-104.754
211073,"19761 East Smoky Hill Road","Centennial","CO",80015,106,39.6128,-104.757
68502,"1500 W Littleton Blvd #106","Littleton","CO",80120,35,39.6129,-105.004
22931,"100 W Littleton Blvd","Littleton","CO",80120,1,39.6131,-104.99
186590,"40 West Littleton Blvd","Littleton","CO",80120,106,39.6133,-104.99
183851,"5699 S. Broadway","Littleton","CO",80121,104,39.6133,-104.988
211569,"5648 S. Parker Road","Aurora","CO",80015,106,39.6135,-104.814
52695,"1499 W. LITTLETON BLVD","LITTLETON","CO",80120,28,39.6135,-105.005
33953,"5650 S Chambers Rd","Aurora","CO",80015,4,39.6141,-104.815
246025,"5620 S PARKER RD","AURORA","CO",80015,138,39.6143,-104.815
148369,"8450 W Cross Dr","Littleton","CO",80123,78,39.6144,-105.092
3327,"19711 E Smoky Hill Rd","Centennial","CO",80015,1,39.6145,-104.76
177742,"8601 W. Cross Dr.","Littleton","CO",80123,99,39.6148,-105.095
54060,"5595 S. BROADWAY","LITTLETON","CO",80121,28,39.6153,-104.988
145108,"5600 South Chambers Rd","Aurora","CO",80015,79,39.6162,-104.813
157470,"5520 S PARKER RD","AURORA","CO",80015,82,39.6165,-104.815
157778,"8500 W. CRESTLINE AVE","LITTLETON","CO",80123,82,39.6171,-105.093
184204,"8100 W. Crestline Ave","Denver","CO",80123,104,39.6175,-105.089
116568,"8100 W. Crestline Ave., Ste. A2","Littleton","CO",80123,57,39.6176,-105.088
145092,"7990 W Crestline Ave","Littleton","CO",80123,79,39.6183,-105.087
239682,"8500 W. Crestline Ave.","Littleton","CO",80123,121,39.6183,-105.093
160235,"5395 S Wadsworth Blvd","Littleton,","CO",80123,84,39.6194,-105.092
197681,"5350 S Santa Fe","Littleton","CO",80120,106,39.6194,-105.017
147270,"5258 SOUTH WADSWORTH BOULEVARD","LITTLETON","CO",80123,80,39.6204,-105.089
136027,"5061 South Jellison Way","Littleton","CO",80123,75,39.6206,-105.09
137742,"7650 West Quincy","Denver","CO",80123,75,39.6206,-105.09
158571,"8100 W. CRESTLINE","DENVER","CO",80123,83,39.6206,-105.09
225311,"5188 S. Broadway","Englewood","CO",80110,105,39.6221,-104.988
164050,"5142 SOUTH WADSWORTH","LITTLETON","CO",80123,93,39.6228,-105.091
91277,"5155 S. Wadsworth Blvd.","Littleton","CO",80123,48,39.6234,-105.092
216911,"8000 East Belleview Avenue","Greenwood Village","CO",80111,108,39.6235,-104.897
183585,"8000 E. Belleview Ave.","Greenwood Village","CO",80111,104,39.624,-104.896
145104,"3000 W Belleview Ave","Littleton","CO",80123,79,39.6241,-105.025
210842,"9904 West Belleview","Littleton","CO",80123,106,39.6241,-105.109
40320,"123 E BELLEVIEW AVE","Englewood","CO",80113,5,39.6244,-104.987
35184,"11605 W BELLEVIEW AVE","Littleton","CO",80127,5,39.6245,-105.129
216916,"8555 W Belleview Ave","Littleton","CO",80123,108,39.6246,-105.092
178231,"4950 S. Yosemite Street, Unit F-1","Greenwood Village","CO",80111,100,39.6246,-104.883
38233,"2697 W BELLEVIEW AVE","Littleton","CO",80123,5,39.6246,-105.02
229893,"4920 South Yosemite Street","Greenwood Village","CO",80111,116,39.625,-104.884
188046,"5066 S Wadsworth Blvd","Littleton","CO",80123,106,39.6252,-105.09
40587,"16950 E SMOKY HILL RD","Centennial","CO",80015,5,39.6254,-104.791
137961,"16706 East Smokey Hill Road","Aurora","CO",80015,75,39.6255,-104.787
139600,"5697 South Himalaya Street","Aurora","CO",80015,75,39.6255,-104.787
158554,"16960 QUINCY AVENUE","AURORA","CO",80015,83,39.6255,-104.787
17774,"16746 E Smoky Hill Rd","Centennial","CO",80015,4,39.6255,-104.794
147760,"5095 S. SANTA FE DRIVE","LITTLETON","CO",80120,80,39.6257,-105.014
185056,"2897 West Belleview Avenue","Littleton","CO",80110,106,39.6259,-105.025
189907,"4910 South Yosemite Street","Greenwood Village","CO",80111,106,39.6261,-104.884
3963,"4910 S Yosemite St","Greenwood Village","CO",80111,1,39.6262,-104.884
7989,"5025 S. Kipling","Littleton","CO",80127,2,39.6263,-105.11
167977,"4955 S Ulster Street","Denver","CO",80237,97,39.6269,-104.895
225363,"4955 S. Ulster Street","Denver","CO",80237,105,39.6269,-104.895
2986,"9820 W Belleview Ave","Littleton","CO",80123,1,39.6279,-105.044
54105,"16601 E. SMOKEY HILL","AURORA","CO",80015,28,39.628,-104.796
89613,"4827 S Wadsworth Way","Littleton","CO",80123,47,39.6301,-105.089
191647,"4696 S Broadway","Englewood","CO",80110,106,39.6315,-104.987
50555,"4690 S YOSEMITE ST UNIT B","GREENWOOD VILLAGE","CO",80111,28,39.6318,-104.885
50475,"4601 S SANTA FE @ UNION","ENGLEWOOD","CO",80110,28,39.6322,-105.009
53082,"4601 S BROADWAY","ENGLEWOOD","CO",80110,28,39.633,-104.988
56535,"4590 S RESERVIOR DR","CENTENNIAL","CO",80015,28,39.6342,-104.759
147364,"4455 SOUTH BUCKLEY ROAD","AURORA","CO",80015,80,39.6356,-104.793
145128,"4277 S Eldridge Street","Morrison","CO",80465,79,39.6362,-105.157
12521,"16910 E Quincy Ave","Aurora","CO",80015,3,39.6366,-104.789
186655,"4343 S Buckley Rd","Aurora","CO",80015,106,39.6373,-104.792
91493,"7900 West Quincy Avenue","Littleton","CO",80123,46,39.6373,-105.086
52730,"4401 S. TAMARAC PKWY","DENVER","CO",80237,28,39.6374,-104.895
56635,"4351 S TAMARAC PKWY","DENVER","CO",80237,28,39.6376,-104.895
208535,"8000 East Quincy Avenue","Denver","CO",80237,106,39.6377,-104.897
205786,"19330 E Quincy Avenue","Aurora","CO",80015,106,39.6379,-104.763
53183,"13790 E QUINCY","AURORA","CO",80015,28,39.6383,-104.827
56651,"16310 E QUINCY","AURORA","CO",80015,28,39.6384,-104.799
55320,"19390 E QUINCY AVE","AURORA","CO",80015,28,39.6385,-104.763
33002,"16921 E. Quincy Ave.","Aurora","CO",80010,2,39.6386,-104.791
13981,"7700 W Quincy Ave","Littleton","CO",80123,4,39.6387,-105.092
19323,"19291 East Quincy Avenue","Aurora","CO",80015,12,39.6389,-104.764
24227,"21405 E QUINCY","AURORA","CO",80013,28,39.6389,-104.738
221727,"4253 SOUTH BUCKLEY ROAD","AURORA","CO",80013,109,39.6393,-104.79
216902,"4261 S. Buckley Road","Aurora","CO",80013,108,39.6394,-104.792
29750,"4271 S Buckley Rd","Aurora","CO",80013,1,39.6396,-104.792
183259,"4205 S. Buckley Rd.","Aurora","CO",80013,104,39.6401,-104.792
134089,"4901 South Broadway","Englewood","CO",80113,75,39.6405,-104.961
71472,"4130 S Federal Blvd","Sheridan","CO",80110,35,39.6408,-105.025
24048,"4096 S FEDERAL BLVD","SHERIDAN","CO",80110,28,39.6429,-105.025
149131,"3860 River Point Parkway","Sheridan","CO",80110,78,39.644,-105.007
91669,"4000 River Point Parkway","Sheridan","CO",80110,46,39.6444,-105.009
51533,"3900 SOUTH BROADWAY","ENGLEWOOD","CO",80110,28,39.6456,-104.987
189644,"3881 Hwy 74","Evergreen","CO",80439,106,39.6458,-105.34
134410,"900 W. Hampden","Englewood","CO",80110,75,39.6463,-105.009
158758,"551 WEST HAMPDEN AVE","ENGLEWOOD","CO",80110,83,39.6463,-105.009
3,"3650 Riverpoint Pkwy","Sheridan","CO",80110,3,39.6506,-105.006
3888,"201 E. Jefferson","Englewood","CO",80110,2,39.6507,-104.99
162270,"3635 S. Monaco Pkwy.","Denver","CO",80237,87,39.6507,-104.915
162683,"3635 S. Monaco Pkwy.","Denver","CO",80237,88,39.6507,-104.915
167996,"3702 Riverpoint Parkway, Unit A","Sheridan","CO",80110,97,39.6511,-105.005
148641,"3625 S Monaco Pkwy","Denver","CO",80237,78,39.6513,-104.913
39252,"3510 EVERGREEN PKWY","Evergreen","CO",80439,5,39.6518,-105.343
1024,"9400 E Hampden Ave","Denver","CO",80231,4,39.6519,-104.879
187972,"7300 E Hampden Ave","Denver","CO",80231,106,39.6521,-104.901
186355,"123 W Hampden","Englewood","CO",80110,106,39.6523,-104.989
194793,"3504 South Tower Rd.","Aurora","CO",80013,106,39.6525,-104.772
32852,"7190 E HAMPDEN AVE","Denver","CO",80224,5,39.6526,-104.905
40156,"15320 E HAMPDEN AVE","Aurora","CO",80013,5,39.6527,-104.809
216893,"6300 East Hampden","Denver","CO",80222,108,39.6528,-104.916
162273,"3565 S. Platte River Drive","Sheridan","CO",80110,87,39.6528,-105.009
162686,"3565 S. Platte River Drive","Sheridan","CO",80110,88,39.6528,-105.009
91257,"7400 E. Hampden Ave","Denver","CO",80231,48,39.6529,-104.901
227733,"18880 E Hampden Ave","Aurora","CO",80013,115,39.6529,-104.769
56246,"4990 EAST HAMPDEN AVE","DENVER","CO",80222,28,39.653,-104.929
220421,"18121 E HAMPDEN AVENUE","AURORA","CO",80013,109,39.653,-104.772
3551,"18730 E. Hampden Ave","Aurora","CO",80013,2,39.653,-104.77
13477,"6470 E Hampden Ave","Denver","CO",80222,1,39.653,-104.914
183203,"7350 E. Hampden Ave.","Denver","CO",80231,104,39.6531,-104.904
71172,"8962 E Hampden Ave","Denver","CO",80231,35,39.6531,-104.883
31299,"4950 E. Hampden Ave.","Denver","CO",80222,2,39.6531,-104.93
229887,"7350 East Hampden Ave, Suite A","Denver","CO",80231,116,39.6531,-104.902
53744,"18883 EAST HAMPDEN","AURORA","CO",80013,28,39.6532,-104.768
225456,"7155 E. Hampden Avenue","Denver","CO",80224,105,39.6532,-104.906
116525,"6305 E. Hampden Rd., Ste. 101","Denver","CO",80222,57,39.6532,-104.916
29522,"3495 S. University Blvd","Englewood","CO",80113,1,39.6533,-104.96
183461,"333 W. Hampden Ave.","Englewood","CO",80110,104,39.6533,-104.992
129555,"3475 S. University Blvd #F","Englewood","CO",80113,1,39.6533,-104.96
52844,"15101 E. HAMPDEN AVE","AURORA","CO",80014,28,39.6533,-104.811
216896,"697 W Hampden Ave","Englewood","CO",80110,108,39.6534,-104.996
51529,"1277 E HAMPDEN","ENGLEWOOD","CO",80110,28,39.6535,-104.973
230318,"18191 E Hampden Ave.","Aurora","CO",80013,116,39.6535,-104.776
206834,"3602 River Point Parkway","Sheridan","CO",80110,106,39.6535,-105.025
230327,"697 W Hampden Ave.","Englewood","CO",80110,116,39.6536,-104.996
178229,"901 West Hampden Ave, Ste. 101","Englewood","CO",80110,100,39.6536,-104.999
40485,"499 E. Hampden Avenue, Suite 150","Englewood","CO",80113,5,39.6536,-104.982
36591,"18461 E HAMPDEN AVE","Aurora","CO",80013,5,39.6537,-104.773
52388,"10010 EAST GIRARD AVE","DENVER","CO",80231,28,39.6543,-104.872
227466,"800 Englewood Pkwy","Englewood","CO",80110,115,39.6543,-104.997
187509,"3355 S Wadsworth Blvd","Lakewood","CO",80227,106,39.6545,-105.082
2953,"18211 E Hampden Ave","Aurora","CO",80013,1,39.6547,-104.776
222918,"800 E. ENGLEWOOD PKWY","ENGLEWOOD","CO",80110,109,39.6547,-104.997
192903,"3100 S Sheridan","Denver","CO",80227,106,39.6548,-105.052
225365,"800 Englewood Pkwy","Englewood","CO",80110,105,39.6548,-104.997
145105,"3130 S Sheridan Blvd","Denver","CO",80227,79,39.6554,-105.053
223192,"3100 SOUTH SHERIDAN BLVD","DENVER","CO",80227,109,39.6555,-105.052
14,"601 Englewood Pkwy","Englewood","CO",80110,4,39.6555,-104.995
21216,"101 Englewood Pkwy","Englewood","CO",80110,1,39.6557,-104.989
3171,"3100 S Sheridan Blvd","Denver","CO",80227,1,39.656,-105.053
116368,"3299 S. Broadway, Ste. B","Englewood","CO",80113,57,39.6564,-104.988
39141,"3067 S SHERIDAN BLVD","Denver","CO",80227,5,39.6575,-105.054
135189,"15340 East Hampden Avenue","Aurora","CO",80013,75,39.6575,-104.785
135443,"16850 E. Iliff Avenue","Aurora","CO",80013,75,39.6575,-104.785
190654,"3105 South Peoria Street","Aurora","CO",80014,106,39.6582,-104.847
183614,"3170 S. Wadsworth","Lakewood","CO",80227,104,39.6594,-105.081
74819,"3190 S Parker Rd","Aurora","CO",80014,1,39.6594,-104.844
54367,"3131 S. BROADWAY","ENGLEWOOD","CO",80110,28,39.6602,-104.988
35820,"3080 S BROADWAY","Englewood","CO",80113,5,39.6606,-104.987
52947,"3005 S. PEORIA","AURORA","CO",80014,28,39.6613,-104.848
14717,"2870 South Colorado Blvd","Denver","CO",80222,12,39.6656,-104.941
68820,"2792 S Federal Blvd","Denver","CO",80236,35,39.6658,-105.025
52395,"2790 S WADSWORTH","DENVER","CO",80227,28,39.6659,-105.081
157122,"2780 S COLORADO BLVD","DENVER","CO",80222,82,39.6661,-104.939
140990,"2560 S Havana St","Aurora","CO",80014,75,39.6662,-104.835
183318,"2760 S. Colorado Blvd.","Denver","CO",80222,104,39.6665,-104.941
2813,"2750 S Colorado Blvd","Denver","CO",80222,1,39.6666,-104.941
136655,"1998 South Kipling Parkway","Lakewood","CO",80227,75,39.6667,-105.085
210033,"6460 E. Yale","Denver","CO",80231,106,39.6669,-104.915
192818,"2950 S. Bear Creek Blvd.","Lakewood","CO",80228,106,39.6671,-105.151
33189,"6440 E. Yale Ave","Denver","CO",80222,2,39.6676,-104.914
229913,"2730 South Colorado Blvd.","Denver","CO",80222,116,39.6678,-104.938
221108,"2730 SOUTH COLORADO BLVD","DENVER","CO",80222,109,39.6681,-104.94
201173,"2648 S Parker Rd","Aurora","CO",80014,106,39.6683,-104.862
51990,"2641 S. ESTES","LAKEWOOD","CO",80227,28,39.6686,-105.096
116387,"2630 S Parker Road","Aurora","CO",80014,57,39.6687,-104.864
40099,"13801 East Yale Avenue","Aurora","CO",80014,5,39.6687,-104.827
192695,"2553 S Colorado Blvd","Denver","CO",80222,106,39.6709,-104.94
134326,"4996 East Hampden Avenue","Denver","CO",80222,75,39.671,-104.928
158840,"4100 E. MEXICO AVE","DENVER","CO",80222,83,39.671,-104.928
71414,"2495 S Havana St","Aurora","CO",80014,35,39.6723,-104.866
167999,"2466 S. Colorado Boulevard","Denver","CO",80222,97,39.6724,-104.941
187428,"16950 E Iliff Ave","Aurora","CO",80013,106,39.6728,-104.791
53452,"2410 S UNIVERSITY","DENVER","CO",80210,28,39.6729,-104.959
11262,"17000 E Iliff Ave","Aurora","CO",80013,1,39.6731,-104.789
24864,"16981 E Iliff Ave","Aurora","CO",80013,35,39.6735,-104.789
53277,"2396 S. FEDERAL BLVD","DENVER","CO",80219,28,39.6738,-105.025
246538,"2300 S. Parker Rd","Aurora","CO",80231,137,39.6743,-104.87
198286,"13692 E Iliff Ave","Aurora","CO",80014,106,39.6745,-104.832
54891,"14250 E. ILIFF AVENUE","AURORA","CO",80014,28,39.6746,-104.823
211685,"15220 E. Iliff Avenue","Aurora","CO",80014,106,39.6747,-104.811
207251,"8450 East Iliff Avenue","Denver","CO",80231,106,39.6747,-104.889
183252,"15280 E. Iliff Ave.","Aurora","CO",80014,104,39.6747,-104.81
240015,"14110 E. Illiff Ave.","Aurora","CO",80014,121,39.6748,-104.824
225346,"2295 S. Peoria","Aurora","CO",80014,105,39.6749,-104.847
71335,"7479 E Iliff Ave","Denver","CO",80231,35,39.6749,-104.9
1106,"12011 E ILIFF AVE","Aurora","CO",80014,5,39.6751,-104.848
55690,"2295 S CHAMBERS RD","AURORA","CO",80014,28,39.6752,-104.811
37696,"15301 E ILIFF AVE","Aurora","CO",80013,5,39.6752,-104.809
167973,"12293 East Iliff Avenue","Aurora","CO",80014,97,39.6753,-104.845
50466,"13697 E ILIFF AVE UNIT 1","AURORA","CO",80014,28,39.6754,-104.831
55656,"2201 S SHERIDAN","DENVER","CO",80222,28,39.6756,-105.053
183979,"2300 S. Parker Rd.","Aurora","CO",80247,104,39.6763,-104.871
53735,"2220 SOUTH PEORIA","AURORA","CO",80014,28,39.6763,-104.847
209596,"2203 S. Peoria Street","Aurora","CO",80014,106,39.6764,-104.847
37998,"18620 E ILIFF AVE","Aurora","CO",80013,5,39.6766,-104.771
2899,"2150 S Downing St","Denver","CO",80210,2,39.6776,-104.973
52731,"2160 S. BROADWAY","DENVER","CO",80210,28,39.6777,-104.988
73501,"2110 S Peoria Street","Aurora","CO",80014,35,39.6781,-104.847
185930,"2120 S Broadway St","Denver","CO",80210,106,39.6782,-104.987
55672,"2100 SOUTH HOLLY","DENVER","CO",80222,28,39.6783,-104.922
39118,"6360 E EVANS AVE","Denver","CO",80222,5,39.6784,-104.914
227632,"6366 E Evans Ave","Denver","CO",80222,115,39.6784,-104.914
230468,"2055 E Evans Avenue","Denver","CO",80208,116,39.6785,-104.963
183199,"1644 E. Evans","Denver","CO",80210,104,39.6785,-104.968
38846,"1235 E EVANS AVE","Denver","CO",80210,5,39.6786,-104.973
229785,"1213 East Evans Ave","Denver","CO",80210,116,39.6787,-104.973
216906,"1737 East Evans Ave","Denver","CO",80210,108,39.6787,-104.967
186427,"6433 E Evans","Denver","CO",80222,106,39.6789,-104.914
136652,"2110 South Broadway Street","Denver","CO",80210,75,39.679,-104.963
71644,"2085 S Federal Blvd","Denver","CO",80219,35,39.679,-105.025
159223,"7400 EAST HAMPDEN AVENUE #8","DENVER","CO",80231,83,39.6793,-104.884
186437,"2069 S Federal Blvd","Denver","CO",80219,106,39.6796,-105.024
190770,"2008 S University Blvd","Denver","CO",80210,106,39.6796,-104.959
22925,"2727 W Evans Ave","Denver","CO",80219,1,39.6797,-105.021
163147,"2000 S. Colorado Blvd.","Denver","CO",80222,91,39.6803,-104.94
163225,"2000 S. Colorado Blvd.","Denver","CO",80222,92,39.6803,-104.94
31948,"1927 S Wadsworth Blvd","Lakewood","CO",80227,1,39.6812,-105.083
109873,"test","test","CO",80202,57,39.6814,-105.053
33157,"1955 So. Sheridan Blvd","Denver","CO",80227,2,39.6814,-105.053
55654,"1910 S HAVANA ST","AURORA","CO",80014,28,39.6817,-104.865
37762,"10808 W JEWELL AVE","Lakewood","CO",80232,5,39.6817,-105.119
191866,"1945 S Sheridan","Denver","CO",80227,106,39.6818,-105.055
7032,"11088 W. Jewell","Lakewood","CO",80226,2,39.6821,-105.123
210355,"7863 West Jewell Avenue","Lakewood","CO",80232,106,39.6822,-105.082
218278,"7677 WEST JEWELL AVENUE","LAKEWOOD","CO",80232,109,39.6822,-105.084
51516,"9101 W JEWELL AVE","LAKEWOOD","CO",80232,28,39.6824,-105.098
56633,"10815 JEWEL","LAKEWOOD","CO",80232,28,39.6825,-105.118
54151,"1850 S SHERIDAN UNIT A","DENVER","CO",80232,28,39.6825,-105.053
23318,"7677 West Jewell Avenue","Lakewood","CO",80232,12,39.6838,-105.083
18137,"1730 So. Buckley Rd.","Aurora","CO",80012,2,39.6846,-104.791
24830,"1760 S Buckley Rd","Aurora","CO",80017,35,39.6847,-104.791
146511,"1701 SOUTH HAVANA STREET","AURORA","CO",80012,80,39.6847,-104.868
160236,"4100 E Mexico Ave Ste A","Denver,","CO",80222,84,39.6852,-104.938
32853,"1677 S. Havana","Aurora","CO",80302,2,39.686,-104.866
178227,"1685 South Colorado Blvd.","Denver","CO",80222,100,39.6862,-104.942
23851,"1651 SOUTH BUCKLEY","AURORA","CO",80017,28,39.6863,-104.792
3427,"1653 S. Colorado Blvd.","Denver","CO",80222,2,39.6865,-104.941
227695,"1627 S Havana St","Aurora","CO",80012,115,39.6869,-104.868
53400,"1585 S. BROADWAY","DENVER","CO",80210,28,39.688,-104.988
137905,"7150 Leetsdale Drive - Unit H","Denver","CO",80224,75,39.688,-104.911
188996,"1550 S Colorado Blvd","Denver","CO",80222,106,39.6881,-104.94
216888,"1502 S. Colorado Blvd","Denver","CO",80222,108,39.6883,-104.94
37875,"1505 S FEDERAL BLVD","Denver","CO",80219,5,39.6889,-105.025
190163,"1535 S Kipling Pky","Lakewood","CO",80232,106,39.6897,-105.119
69385,"1467 S Holly St","Denver","CO",80222,35,39.6897,-104.922
53339,"1499 S. FEDERAL BLVD","DENVER","CO",80219,28,39.6899,-105.025
91490,"1471 South Havana St.","Aurora","CO",80012,46,39.69,-104.868
207967,"1470 S. Santa Fe Drive","Denver","CO",80223,106,39.69,-104.992
56329,"1450 S SANTA FE DR","DENVER","CO",80223,28,39.69,-104.991
31385,"1442 S Parker Rd","Denver","CO",80231,4,39.6903,-104.891
3349,"1545 S Kipling Pkwy","Lakewood","CO",80232,1,39.6904,-105.119
22926,"5125 W Florida Ave","Denver","CO",80219,1,39.6905,-105.052
196921,"1412 S Parker Rd","Aurora","CO",80231,106,39.692,-104.892
68637,"1355 S Sheridan Blvd","Lakewood","CO",80232,35,39.6922,-105.054
72682,"1320 S. Federal Blvd.","Denver","CO",80219,35,39.6922,-105.024
22920,"1173 Bergen Pkwy","Evergreen","CO",80439,1,39.6932,-105.358
216905,"10550 E Garden Drive","Aurora","CO",80012,108,39.6933,-104.865
221111,"10650 E. GARDEN DR","AURORA","CO",80012,109,39.6933,-104.864
51535,"567 E LOUISIANA","DENVER","CO",80210,28,39.6933,-104.981
225674,"10550 E. Garden Drive","Aurora","CO",80012,105,39.6935,-104.865
197226,"1250 S Buckley Rd","Aurora","CO",80017,106,39.6939,-104.789
3160,"1400 S Havana St","Aurora","CO",80012,3,39.6939,-104.863
183214,"1205 S. Havana","Aurora","CO",80012,104,39.6948,-104.866
139863,"620 South Buckley Road","Aurora","CO",80017,75,39.6948,-104.788
52000,"1120 SOUTH PARKER RD","DENVER","CO",80231,28,39.6949,-104.896
186520,"1155 S Havana","Aurora","CO",80012,106,39.695,-104.867
28374,"1155 S Havana St","Aurora","CO",80012,1,39.6953,-104.867
225403,"1180 S. Buckley Road","Aurora","CO",80017,105,39.6954,-104.791
14393,"15250 E Mississippi Ave","Aurora","CO",80012,1,39.6954,-104.811
138043,"2095 South Federal Boulevard","Denver","CO",80219,75,39.6956,-105.034
188933,"14004 E Mississippi Ave","Aurora","CO",80012,106,39.6957,-104.824
32997,"13111 W. Alameda Pkwy.","Lakewood","CO",80228,2,39.6959,-105.146
116365,"1120 S. Colorado. Blvd.","Glendale","CO",80246,57,39.696,-104.94
91251,"1111 S. Washington St.","Denver","CO",80210,48,39.696,-104.98
9,"1111 S COLORADO BLVD","Denver","CO",80246,5,39.6962,-104.941
55564,"1107 S SHERIDAN","LAKEWOOD","CO",80232,28,39.6964,-105.054
53933,"13190 E MISSISSIPPI AVE","AURORA","CO",80012,28,39.6965,-104.837
19754,"12200 E. Mississippi","Aurora","CO",80014,2,39.6965,-104.846
164041,"13790 E. MISSISSIPPI AV","AURORA","CO",80012,93,39.6965,-104.831
145086,"14001 E Mississippi Ave","Aurora","CO",80012,79,39.6967,-104.825
71898,"15081 E Mississippi Ave","Aurora","CO",80012,35,39.6967,-104.812
68526,"1875 W Mississippi Ave","Denver","CO",80223,35,39.6968,-105.01
36402,"12051 E MISSISSIPPI AVE","Aurora","CO",80012,5,39.6968,-104.848
52946,"15553 E. MISSISSIPPI","AURORA","CO",80017,28,39.6968,-104.807
50286,"18451 E ALAMEDA PKWY @ MISSISSIPPI","AURORA","CO",80017,28,39.6968,-104.771
52993,"4085 E. MISSISSIPPI","DENVER","CO",80222,28,39.697,-104.94
53969,"14593 E MISSISSIPPI","AURORA","CO",80012,28,39.697,-104.817
139672,"9690 East Alameda Avenue","Denver","CO",80247,75,39.6971,-104.882
36505,"15301 E MISSISSIPPI AVE","Aurora","CO",80017,5,39.6972,-104.81
225521,"29057 Hotel Way","Evergreen","CO",80439,105,39.6973,-105.33
160242,"13801 E Mississippi Ave","Aurora,","CO",80012,84,39.6978,-104.827
145117,"1014 El Rancho Road","Golden","CO",80439,79,39.698,-105.327
73314,"7150 Leetsdale Dr., Unit 180","Denver","CO",80224,35,39.6984,-104.904
134949,"12119 East Mississippi Avenue","Aurora","CO",80012,75,39.6987,-104.838
136882,"14090 E. Mississippi Avenue","Aurora","CO",80012,75,39.6987,-104.838
140473,"14200 E Alameda Ave #2072","Aurora","CO",80012,75,39.6987,-104.838
159213,"1350 SOUTH IRONTON ST","AURORA","CO",80012,83,39.6987,-104.838
220805,"7150 LEETSDALE DRIVE","DENVER","CO",80224,109,39.699,-104.905
38845,"12880 W ALAMEDA PKWY","Lakewood","CO",80228,5,39.699,-105.142
3966,"3851 So. Hwy 74","Evergreen","CO",80439,2,39.699,-105.331
33149,"7150 Leetsdale Dr","Denver","CO",80224,2,39.6992,-104.905
35939,"950 S QUEBEC ST","Denver","CO",80247,5,39.6992,-104.903
3980,"952 Swede Gulch Rd","Evergreen","CO",80439,4,39.6999,-105.328
136419,"950 West Alemeda Avenue","Denver","CO",80223,75,39.7002,-105.003
71902,"911 South Havana St","Aurora","CO",80012,35,39.7004,-104.867
74818,"890 S Monaco Pkwy","Denver","CO",80224,1,39.7005,-104.913
89609,"880 S Abilene St","Aurora","CO",80012,47,39.7006,-104.826
54305,"880 S BUCKLEY","AURORA","CO",80017,28,39.7006,-104.791
91009,"870 S. Colorado Blvd.","Glendale","CO",80246,48,39.7006,-104.94
204656,"952 Swede Gulch Rd","Golden","CO",80401,106,39.7008,-105.328
53565,"890 S. FEDERAL BLVD","DENVER","CO",80219,28,39.7009,-105.025
145111,"860 S Colorado Blvd","Glendale","CO",80246,79,39.7011,-104.941
1924,"825 S Colorado Blvd","Denver","CO",80246,1,39.7016,-104.941
183223,"820 S. Monaco Pkwy","Denver","CO",80224,104,39.7018,-104.912
227492,"12792 W Alameda Pkwy","Lakewood","CO",80228,115,39.7019,-105.141
148391,"790 S Colorado Blvd","Glendale","CO",80246,78,39.7023,-104.941
3096,"14000 E Exposition Ave","Aurora","CO",80012,4,39.7025,-104.826
53300,"750 S. MONACO","DENVER","CO",80224,28,39.7033,-104.913
221218,"760 S. COLORADO BLVD.","GLENDALE","CO",80246,109,39.7035,-104.94
168001,"650 S. Wadsworth Blvd.","Lakewood","CO",80226,97,39.7053,-105.081
167998,"640 South Colorado Boulevard","Glendale","CO",80246,97,39.7055,-104.941
145090,"500 S Santa Fe Dr","Denver","CO",80223,79,39.706,-104.995
186645,"560 South Holly Street","Denver","CO",80246,106,39.7062,-104.921
89610,"505 S Broadway","Denver","CO",80209,47,39.7074,-104.988
221712,"487 SOUTH BROADWAY","DENVER","CO",80209,109,39.7081,-104.988
2306,"14200 E Ellsworth Ave","Aurora","CO",80012,3,39.7081,-104.823
221796,"12091 WEST ALAMEDA AVE","LAKEWOOD","CO",80228,109,39.7082,-105.135
209040,"9660 E. Alameda","Denver","CO",80247,106,39.7082,-104.877
14473,"12043 W Alameda Pkwy","Lakewood","CO",80228,1,39.7082,-105.135
2364,"4600 Leetsdale Dr","Glendale","CO",80246,1,39.7084,-104.933
21,"4301 E Virginia Ave","Glendale","CO",80246,3,39.7085,-104.938
73559,"15390 E Alameda Parkway","Aurora","CO",80017,35,39.7085,-104.808
191655,"15340 E Alameda Pky","Aurora","CO",80017,106,39.7087,-104.809
589,"460 S Vance St","Lakewood","CO",80226,3,39.7089,-105.079
254246,"14200 E Alameda Avenue","Aurora","CO",80012,157,39.7089,-104.825
90976,"444 S.Wadsworth Blvd","Lakewood","CO",80226,48,39.7092,-105.081
254252,"7251 West Alaska Drive","Lakewood","CO",80226,157,39.7093,-105.078
178234,"7161 W. Alaska Dr.","Lakewood","CO",80226,100,39.7093,-105.076
187666,"14200 E Alameda Avenue","Aurora","CO",80012,106,39.7095,-104.823
183254,"355 S. Wadsworth","Lakewood","CO",80226,104,39.7097,-105.082
20317,"7984 W Alameda Ave","Lakewood","CO",80226,1,39.7097,-105.085
157965,"4300 E. ALAMEDA AVENUE","GLENDALE","CO",80246,82,39.71,-104.937
20154,"11907 West Alameda Parkway","Lakewood","CO",80228,12,39.7102,-105.132
160813,"384 S. Wadsworth Blvd","Lakewood,","CO",80226,84,39.7104,-105.081
40293,"360 S COLORADO BLVD","Glendale","CO",80246,5,39.7104,-104.94
223469,"7740 WEST ALMEDA AVE","LAKEWOOD","CO",80226,109,39.7105,-105.083
52178,"9200 W ALAMEDA","LAKEWOOD","CO",80226,28,39.7106,-105.101
229835,"300 East Alameda Avenue","Denver","CO",80209,116,39.7107,-104.983
207491,"320 S Colorado Blvd","Glendale","CO",80246,106,39.7108,-104.94
23940,"10722 EAST ALAMEDA","AURORA","CO",80012,28,39.7109,-104.863
216879,"7740 West Alameda","Lakewood","CO",80226,108,39.7109,-105.083
219669,"14200 EAST ALAMEDA AVE","AURORA","CO",80012,109,39.7109,-104.825
192763,"303 S Broadway","Denver","CO",80209,106,39.711,-104.987
187346,"7111 W Alameda Ave","Lakewood","CO",80226,106,39.711,-105.075
39576,"300 S FEDERAL BLVD","Denver","CO",80219,5,39.7111,-105.025
145099,"6701 W Alameda Ave","Lakewood","CO",80226,79,39.7111,-105.072
183201,"371 E. Alameda","Denver","CO",80209,104,39.7111,-104.984
188679,"2701 W Alameda Ave","Denver","CO",80219,106,39.7112,-105.02
53351,"85 W. ALAMEDA","DENVER","CO",80223,28,39.7113,-104.99
37975,"10601 E ALAMEDA AVE","Aurora","CO",80012,5,39.7113,-104.865
54325,"2299 WEST ALAMEDA","DENVER","CO",80223,28,39.7114,-105.014
51531,"607 E. ALAMEDA","DENVER","CO",80209,28,39.7114,-104.98
186201,"275 S Union Blvd","Lakewood","CO",80228,106,39.7118,-105.134
148819,"265 S Abilene St","Aurora","CO",80012,78,39.7118,-104.824
246027,"14150 E. ALMEDA PARKWAY","AURORA","CO",80012,138,39.7118,-104.822
56566,"14531 E ALAMEDA","AURORA","CO",80012,28,39.7118,-104.819
186436,"145 S Sheridan Blvd","Denver","CO",80226,106,39.7119,-105.055
35227,"245 S SHERIDAN BLVD","Lakewood","CO",80226,5,39.7123,-105.055
134227,"302 South Sheridan Boulevard","Denver","CO",80226,75,39.7123,-105.092
158373,"475 S. WADSWORTH","LAKEWOOD","CO",80226,83,39.7123,-105.092
251097,"205 S. ABILENE ST.","AURORA","CO",80012,153,39.7128,-104.825
178216,"14151 E. Cedar Ave.","Aurora","CO",80012,100,39.7129,-104.824
161294,"3000 E 1st Ave","Denver","CO",80206,85,39.7155,-104.953
161634,"3000 E 1st Ave","Denver","CO",80206,86,39.7155,-104.953
157502,"40 S. ABILENE ST","AURORA","CO",80012,82,39.7155,-104.825
71048,"95 S Sheridan Blvd","Lakewood","CO",80226,35,39.7156,-105.054
200506,"3000 E 1st Ave","Denver","CO",80206,106,39.7166,-104.957
183795,"145 Union Blvd.","Lakewood","CO",80228,104,39.7174,-105.134
222167,"3000 EAST 1ST AVE","DENVER","CO",80206,109,39.7176,-104.95
2353,"3110 East First Ave.","Denver","CO",80206,2,39.7179,-104.951
19950,"3112 East 1st Avenue","Denver","CO",80206,12,39.7179,-104.951
53841,"95 SHERIDAN","LAKEWOOD","CO",80226,28,39.7182,-105.053
53268,"105 KNOX COURT","DENVER","CO",80219,28,39.7182,-105.033
190388,"212 Union Blvd.","Lakewood","CO",80228,106,39.7182,-105.132
148380,"88 Wadsworth Blvd","Lakewood","CO",80226,78,39.7183,-105.081
183237,"140 Steele St.","Denver","CO",80206,104,39.7185,-104.95
35588,"120 BROADWAY","Denver","CO",80203,5,39.7186,-104.987
261546,"2375 E. 1st Ave","Denver","CO",80206,154,39.7188,-104.957
90991,"2375 E. 1st Ave","Denver","CO",80206,48,39.7188,-104.957
221566,"365 NORTH TELLUIDE","AURORA","CO",80011,109,39.7193,-104.782
157121,"160 WADSWORTH BLVD","LAKEWOOD","CO",80226,82,39.7196,-105.08
230293,"200 Quebec, Bldg 800, Suite 101","Denver","CO",80230,116,39.7199,-104.903
188518,"201 University Blvd","Denver","CO",80206,106,39.7201,-104.96
208384,"200 Quebec Street","Denver","CO",80219,106,39.7201,-104.902
220835,"200 QUEBEC ST","DENVER","CO",80230,109,39.7202,-104.903
225374,"200 Quebec Street","Denver","CO",80230,105,39.7204,-104.903
54198,"303 N SANTA FE DR","DENVER","CO",80223,28,39.721,-104.999
53188,"303 N BROADWAY","DENVER","CO",80203,28,39.721,-104.988
4166,"440 Wadsworth Blvd","Lakewood","CO",80226,4,39.7216,-105.08
205839,"440 Wadsworth Blvd","Lakewood","CO",80226,106,39.7216,-105.08
71369,"460 Broadway","Denver","CO",80203,35,39.7234,-104.987
206649,"16950 W Colfax Ave","Golden","CO",80401,106,39.7236,-105.191
229921,"490 Wadsworth Blvd","Lakewood","CO",80226,116,39.7236,-105.081
189797,"472 Broadway","Denver","CO",80203,106,39.7239,-104.987
56512,"495 SHERIDAN AVE","LAKEWOOD","CO",80225,28,39.724,-105.053
210116,"365 N. Telluride St.","Buckley AFB","CO",80011,106,39.7242,-104.784
145107,"16900 W Colfax Ave","Golden","CO",80401,79,39.7243,-105.191
240030,"500 Grant Street","Denver","CO",80203,121,39.7244,-104.984
5049,"560 Corona St.","Denver","CO",80218,2,39.7244,-104.974
225309,"550 Grant Street","Denver","CO",80203,105,39.7249,-104.984
183243,"550 Broadway","Denver","CO",80203,104,39.7249,-104.988
53523,"580 JOSEPHINE","DENVER","CO",80206,28,39.7253,-104.958
178226,"575 Lincoln Street, #D","Denver","CO",80203,100,39.7253,-104.986
216873,"550 Broadway, Unit B","Denver","CO",80203,108,39.7253,-104.987
53610,"595 HAVANA ST","AURORA","CO",80010,28,39.7254,-104.867
13005,"365 NORTH TELLURIDE - Bldg #1","AURORA","CO",80011,32,39.7257,-104.782
69082,"620 Peoria St","Aurora","CO",80011,35,39.7257,-104.847
191081,"669 Peoria St","Aurora","CO",80011,106,39.7258,-104.847
54104,"15511 E. 6TH AVE.","AURORA","CO",80011,28,39.7258,-104.808
30855,"655 Peoria St","Aurora","CO",80011,1,39.7264,-104.847
52430,"7295 EAST 7TH AVE","DENVER","CO",80220,28,39.727,-104.904
230371,"6th and Kipling","Lakewood","CO",80225,116,39.7272,-105.11
211815,"777 Bannock Street","Denver","CO",80204,106,39.7281,-104.99
183200,"745 Colorado Blvd.","Denver","CO",80206,104,39.7282,-104.941
51528,"4040 EAST 8TH AVE","DENVER","CO",80220,28,39.7289,-104.94
192865,"4300 E 8th Ave","Denver","CO",80220,106,39.7289,-104.937
230400,"117 Adams Center","Troy","AL",36082,116,39.7291,-104.837
54063,"820 SIMMS, UNIT 8","LAKEWOOD","CO",80401,28,39.7292,-105.128
54044,"801 LINCOLN","DENVER","CO",80203,28,39.7293,-104.987
229792,"895 Colorado Blvd.","Denver","CO",80206,116,39.7302,-104.941
137189,"651 - 16th Street","Golden","CO",80401,75,39.7305,-105.191
139222,"1005 El Rancho Road","Golden","CO",80401,75,39.7305,-105.191
140301,"Colorado Mills","Lakewood","CO",80401,75,39.7305,-105.191
158381,"17132 W COLFAX AVE","GOLDEN","CO",80401,83,39.7305,-105.191
229841,"1025 East 9th Ave","Denver","CO",80218,116,39.7306,-104.974
193190,"890 Wadsworth Blvd","Lakewood","CO",80214,106,39.731,-105.081
137175,"7313 E Colfax","Denver","CO",80220,75,39.7312,-104.913
136736,"600 Broadway","Denver","CO",80203,75,39.7313,-104.981
39757,"4545 E 9Th Ave Suite 100","Denver","CO",80220,5,39.7313,-104.935
4773,"1155 E 9th Ave","Denver","CO",80218,1,39.7315,-104.974
254253,"14500 Colfax Avenue","Lakewood","CO",80401,157,39.7316,-105.159
19,"14500 W Colfax Ave Unit B1","Lakewood","CO",80401,3,39.732,-105.157
246547,"14630 West Colfax Ave.","Lakewood","CO",80401,137,39.7321,-105.164
168003,"14740 W Colfax Ave #110","Lakewood","CO",80401,97,39.7324,-105.164
134376,"1680 E. Colfax Avenue","Denver","CO",80218,75,39.7327,-104.972
72283,"990 Federal Blvd.","Denver","CO",80204,35,39.7327,-105.025
24930,"998 Sheridan Blvd","Denver","CO",80214,35,39.733,-105.053
54334,"1000 FEDERAL","DENVER","CO",80204,28,39.7332,-105.025
91010,"900 E. 11th Ave.","Denver","CO",80218,48,39.7333,-104.976
163150,"14500 West Colfax Ave.","Lakewood","CO",80401,91,39.7333,-105.157
163228,"14500 West Colfax Ave.","Lakewood","CO",80401,92,39.7333,-105.157
53698,"1103 YOSEMITE","DENVER","CO",80220,28,39.7333,-104.885
51534,"1090 OGDEN","DENVER","CO",80218,28,39.7334,-104.975
141575,"1085 Broadway","Denver","CO",80203,76,39.7335,-104.988
51527,"1107 SANTA FE","DENVER","CO",80204,28,39.7339,-104.999
135385,"1010 West Colfax Avenue","Denver","CO",80204,75,39.734,-105.026
135928,"1800 Federal Boulevard","Denver","CO",80204,75,39.734,-105.026
183531,"14255 W. Colfax","Lakewood","CO",80401,104,39.7341,-105.161
222571,"14500 WEST COLFAX AVE","LAKEWOOD","CO",80401,109,39.7342,-105.16
230096,"14401 West Colfax Avenue","Lakewood","CO",80401,116,39.7342,-105.163
225319,"14231 West Colfax Avenue","Lakewood","CO",80401,105,39.7342,-105.161
90994,"14357 W. Colfax Ave.","Golden","CO",80401,48,39.7353,-105.162
216920,"14025 W. Colfax Dr.","Lakewood","CO",80401,108,39.7354,-105.156
53697,"16400 SOUTH GOLDEN ROAD","GOLDEN","CO",80401,28,39.7355,-105.185
251069,"14265 W COLFAX AVE.","GOLDEN","CO",80401,153,39.7362,-105.158
227081,"1275 Grant St","Denver","CO",80203,115,39.7365,-104.984
178230,"14237 West Colfax Ave.","Golden","CO",80401,100,39.7368,-105.16
160354,"1400 Denver West Blvd","Lakewood,","CO",80401,84,39.7369,-105.154
167974,"1330 Grant Street","Denver","CO",80203,97,39.7369,-104.984
74816,"1355 Krameria St","Denver","CO",80220,1,39.7376,-104.916
22929,"1331 Speer Blvd","Denver","CO",80204,1,39.7376,-104.998
134853,"15290 East Colfax","Aurora","CO",80011,75,39.7378,-104.815
138384,"3800 Chambers Road","Aurora","CO",80011,75,39.7378,-104.815
139832,"625 North Peoria Street","Aurora","CO",80011,75,39.7378,-104.815
140153,"365 North Telluride","Aurora","CO",80011,75,39.7378,-104.815
158815,"3511 N. SALIDA CT #40","AURORA","CO",80011,83,39.7378,-104.815
52206,"8390 WEST 14TH AVE","LAKEWOOD","CO",80215,28,39.7379,-105.091
8518,"6220 East 14th Ave.","Denver","CO",80220,2,39.7383,-104.916
210192,"434 West 14th Avenue","Denver","CO",80204,106,39.7384,-104.993
227659,"270 W 14th Ave","Denver","CO",80204,115,39.7385,-104.991
39142,"17222 S GOLDEN RD","Golden","CO",80401,5,39.7385,-105.196
55589,"6201 E 14TH","DENVER","CO",80220,28,39.7388,-104.916
163149,"14225 W. Colfax Ave.","Golden","CO",80401,91,39.7389,-105.149
163227,"14225 W. Colfax Ave.","Golden","CO",80401,92,39.7389,-105.149
8,"17171 S Golden Rd","Golden","CO",80401,1,39.7391,-105.193
69907,"12100 E Colfax Ave","Aurora","CO",80011,35,39.7392,-104.846
39471,"15310 E COLFAX AVE","Aurora","CO",80011,5,39.7394,-104.809
35256,"2000 E COLFAX AVE","Denver","CO",80206,5,39.7394,-104.963
71927,"8400 W Colfax Ave","Lakewood","CO",80215,35,39.7396,-105.091
39036,"10140 W COLFAX AVE","Lakewood","CO",80215,5,39.7396,-105.112
211006,"10498-C, East Colfax Avenue","Aurora","CO",80010,106,39.7397,-104.866
189552,"1050 W Colfax Ave","Denver","CO",80204,106,39.7397,-105.001
72909,"1700 E Colfax Avenue","Denver","CO",80218,35,39.7397,-104.967
68752,"10204 E Colfax Ave","Aurora","CO",80010,35,39.7397,-104.869
186463,"10790 W Colfax Ave","Lakewood","CO",80215,106,39.7397,-105.119
53354,"1000 E COLFAX","DENVER","CO",80218,28,39.7398,-104.975
193033,"1470 Chambers Rd","Aurora","CO",80011,106,39.7398,-104.81
190342,"4100 E Colfax","Denver","CO",80220,106,39.7399,-104.939
189041,"1919 E Colfax Ave","Denver","CO",80206,106,39.74,-104.964
211816,"1060 East Colfax Ave.","Denver","CO",80218,106,39.74,-104.974
71144,"7740 E Colfax Ave","Denver","CO",80220,35,39.74,-104.898
36164,"6200 E COLFAX AVE","Denver","CO",80220,5,39.74,-104.916
225470,"6110 E. Colfax Avenue","Denver","CO",80220,105,39.74,-104.917
53238,"10502 E. COLFAX","AURORA","CO",80010,28,39.7401,-104.866
52392,"16080 EAST COLFAX AVE","AURORA","CO",80011,28,39.7401,-104.801
56452,"5200 W COLFAX","LAKEWOOD","CO",80214,28,39.7401,-105.054
168002,"13100 E. Colfax Avenue","Aurora","CO",80011,97,39.7401,-104.837
216898,"13700 E Colfax","Aurora","CO",80011,108,39.7401,-104.824
53014,"11599 W. COLFAX","LAKEWOOD","CO",80215,28,39.7401,-105.128
51930,"4770 WEST COLFAX AVE","DENVER","CO",80204,28,39.7401,-105.048
183686,"13700 E. Colfax Ave.","Aurora","CO",80011,104,39.7401,-104.828
55908,"599 E COLFAX","DENVER","CO",80203,28,39.7401,-104.98
216912,"2205 East Colfax Ave.","Denver","CO",80206,108,39.7401,-104.961
33034,"9160 W. Colfax","Lakewood","CO",80215,2,39.7402,-105.1
183805,"2500 E. Colfax Ave.","Denver","CO",80206,104,39.7402,-104.957
145129,"7200 W Colfax Ave","Lakewood","CO",80214,79,39.7402,-105.078
53557,"1490 PERRY ST","DENVER","CO",80204,28,39.7402,-105.039
147528,"10555 WEST COLFAX AVENUE","LAKEWOOD","CO",80215,80,39.7403,-105.116
55455,"1975 E COLFAX","DENVER","CO",80206,28,39.7403,-104.964
191079,"7327 E Colfax Ave","Denver","CO",80220,106,39.7403,-104.903
51532,"7675 EAST COLFAX","DENVER","CO",80220,28,39.7403,-104.899
53031,"14490 E. COLFAX AVE","AURORA","CO",80011,28,39.7403,-104.82
70299,"9131 E Colfax Ave","Aurora","CO",80010,35,39.7403,-104.881
183701,"7355 W. Colfax","Lakewood","CO",80214,104,39.7403,-105.079
732,"7455 W Colfax Ave","Lakewood","CO",80214,4,39.7404,-105.08
225512,"7611 W. Colfax Avenue","Lakewood","CO",80214,105,39.7404,-105.082
55479,"2341 E COLFAX","DENVER","CO",80206,28,39.7405,-104.959
52449,"3177 EAST COLFAX","DENVER","CO",80206,28,39.7405,-104.951
38906,"5151 W COLFAX AVE","Denver","CO",80204,5,39.7406,-105.053
22928,"1555 Quail St","Lakewood","CO",80215,1,39.7406,-105.124
177744,"3625 E. Colfax Avenue","Denver","CO",80206,99,39.7406,-104.945
36031,"10501 E COLFAX AVE","Aurora","CO",80010,5,39.7406,-104.865
187259,"17708 S Golden Rd","Golden","CO",80401,106,39.7408,-105.2
204727,"965 S First St","Bennett","CO",80102,106,39.7408,-104.435
187833,"1550 Broadway St","Denver","CO",80202,106,39.7409,-104.987
33041,"2425 Miner St.","Idaho Springs","CO",80452,2,39.7411,-105.506
53535,"1580 COLORADO BLVD","DENVER","CO",80220,28,39.7411,-104.94
17278,"15109 E Colfax Ave","Aurora","CO",80011,1,39.7411,-104.812
24540,"15355 E Colfax Ave","Aurora","CO",80011,35,39.7412,-104.809
199470,"201 W Colfax","Denver","CO",80202,106,39.7413,-104.99
191799,"2364 Colorado Blvd","Idaho Springs","CO",80452,106,39.7416,-105.5
56243,"1560 COURT PL","DENVER","CO",80202,28,39.7416,-104.99
68604,"6579 Colfax","Lakewood","CO",80214,35,39.7419,-105.068
220543,"7475 WEST COLFAX AVE","LAKEWOOD","CO",80214,109,39.742,-105.08
227660,"216 16th St","Denver","CO",80202,115,39.742,-104.988
16631,"1045 S 1st St","Bennett","CO",80102,1,39.7429,-104.435
216909,"303 16th Street, Suite 150","Denver","CO",80202,108,39.7429,-104.989
53083,"1690 PEARL","DENVER","CO",80203,28,39.743,-104.98
56162,"380 E 17TH AVE","DENVER","CO",80203,28,39.7431,-104.983
225352,"1400 East 17th Avenue","Denver","CO",80218,105,39.7432,-104.97
199285,"409 16th St","Denver","CO",80202,106,39.7433,-104.99
51530,"1645 EAST 17TH AVE","DENVER","CO",80218,28,39.7434,-104.968
134130,"10590 West Colfax Avenue","Lakewood","CO",80215,75,39.7435,-105.101
163146,"500 16th St.","Denver","CO",80202,91,39.7436,-104.99
163224,"500 16th St.","Denver","CO",80202,92,39.7436,-104.99
139687,"6435 West Colfax Avenue","Lakewood","CO",80214,75,39.7436,-105.064
139859,"2601 Sheridan Boulevard","Edgewater","CO",80214,75,39.7436,-105.064
206466,"12501 E 17th Ave","Aurora","CO",80045,106,39.7437,-104.841
222053,"500 16TH STREET","DENVER","CO",80202,109,39.7439,-104.99
39861,"13123 East 16th Ave","Aurora","CO",80045,5,39.7444,-104.836
208192,"1775 Sherman Street","Denver","CO",80203,106,39.7445,-104.985
230023,"1600 E 18th Avenue","Denver","CO",80218,116,39.7446,-104.968
2789,"1725 Sheridan Blvd","Edgewater","CO",80214,1,39.7447,-105.055
227549,"1420 E 18th Ave","Denver","CO",80218,115,39.7449,-104.97
230010,"1600 California Street","Denver","CO",80202,116,39.7452,-104.992
183204,"1600 California St.","Denver","CO",80202,104,39.7452,-104.992
53206,"1800 DOWNING","DENVER","CO",80218,28,39.7453,-104.973
230162,"900 Auraria Pkwy, Suite 125","Denver","CO",80204,116,39.7453,-105.006
178225,"701 16th Street","Denver","CO",80202,100,39.7454,-104.992
193147,"900 Auraria Pky","Denver","CO",80204,106,39.7454,-105.006
53370,"1795 PEORIA","AURORA","CO",80010,28,39.7454,-104.848
50464,"621 17TH STREET SUITE 100","DENVER","CO",80293,28,39.7457,-104.99
48242,"750 16th Street","Denver","CO",80202,12,39.7457,-104.993
68803,"1845 Federal Blvd","Denver","CO",80204,35,39.7459,-105.025
29467,"801 16TH ST","Denver","CO",80202,5,39.7461,-104.993
1979,"1985 Sheridan Blvd","Edgewater","CO",80214,3,39.7461,-105.056
53050,"1438 ARAPAHOE","DENVER","CO",80202,28,39.7461,-104.998
55086,"820 16TH ST. SUITE 100","DENVER","CO",80202,28,39.7464,-104.994
227141,"1661 Stout St","Denver","CO",80202,115,39.7464,-104.992
40573,"1601 E 19th Avenue, Suite 4650, 4th Floor","Denver","CO",80218,5,39.7466,-104.968
41040,"1960 N. Ogden Street, Suite #130","Denver","CO",80218,5,39.7467,-104.974
148683,"951 16th Street #105","Denver","CO",80202,78,39.7469,-104.994
187778,"1931 Sheridan Dr X","Edgewater","CO",80214,106,39.7472,-105.055
220437,"1931 SHERIDAN BLVD","EDGEWATER","CO",80214,109,39.7473,-105.054
15,"757 E. 20th Ave.","Denver","CO",80205,2,39.7475,-104.978
23981,"10201 MONTVIEW","AURORA","CO",80010,28,39.7479,-104.869
55521,"1726 CHAMPA STREET","DENVER","CO",80202,28,39.7479,-104.992
196894,"757 E 20th Ave","Denver","CO",80202,106,39.7481,-104.978
227079,"1001 17th St","Denver","CO",80202,115,39.7481,-104.994
195373,"1512 Larimer Street","Denver","CO",80202,106,39.7485,-104.998
227105,"999 18th St STE 136","Denver","CO",80202,115,39.7486,-104.992
116386,"1201 16th St.","Denver","CO",80202,57,39.7489,-104.997
154879,"1660 17th Street","Denver","CO",80202,81,39.7491,-104.995
225310,"1533 Market Street","Denver","CO",80202,105,39.7493,-104.999
216876,"1460 16th Street","Denver","CO",80202,108,39.7501,-104.999
55583,"1800 LAWRENCE ST","DENVER","CO",80202,28,39.7504,-104.994
256426,"1660 17th Street","Denver","CO",80202,112,39.7504,-104.999
183257,"1480 16th St.","Denver","CO",80202,104,39.7504,-104.999
230382,"1650 Arapahoe Street","Golden","CO",80401,116,39.7508,-105.219
210017,"1500 Illinois Street","Golden","CO",80401,106,39.751,-105.223
27680,"1701 Jackson St.","Golden","CO",80401,2,39.7519,-105.216
55614,"1775 BLAKE ST","DENVER","CO",80202,28,39.7522,-104.997
72765,"100 Bennett Avenue","Bennett","CO",80102,35,39.7524,-104.433
178944,"1660 17th Street","Denver","CO",80202,101,39.7526,-105
50099,"5195 W. BYRON ST (SLOANS LAKE)","DENVER","CO",80212,28,39.7534,-105.053
52012,"2609 FEDERAL BVD","DENVER","CO",80211,28,39.7551,-105.025
33182,"2660 N. Federal Bvd.","Denver","CO",80211,2,39.7554,-105.024
74820,"2810 Quebec St","Denver","CO",80207,1,39.7566,-104.902
71899,"2848 Colorado Blvd","Denver","CO",80207,35,39.7574,-104.94
230166,"7300 E 29th Ave., Bldg 6, #600","Denver","CO",80238,116,39.7574,-104.902
183375,"7400 East 29th Ave.","Denver","CO",80238,104,39.758,-104.902
216890,"7401 E. 29th Ave","Denver","CO",80238,108,39.7581,-104.901
139303,"3200 North Downing Street","Denver","CO",80205,75,39.759,-104.966
21234,"7311 E 29TH DR","Denver","CO",80238,5,39.7598,-104.903
36397,"2975 FEDERAL BLVD","Denver","CO",80211,5,39.7601,-105.026
228256,"2990 N Speer Blvd","Denver","CO",80211,115,39.7604,-105.025
7269,"12700 W 32ND AVE","Wheat Ridge","CO",80033,5,39.7612,-105.142
116366,"3356 Youngfield St.","Wheat Ridge","CO",80033,57,39.7615,-105.143
667,"3301 Tower Rd","Aurora","CO",80011,4,39.7618,-104.774
183205,"3600 W. 32nd Ave.","Denver","CO",80211,104,39.7621,-105.035
148441,"3240 Youngfield St","Wheat Ridge","CO",80033,78,39.7624,-105.143
216871,"3294 Youngfield","Wheat Ridge","CO",80033,108,39.7629,-105.14
183202,"3294 Youngfield St.","Wheat Ridge","CO",80033,104,39.7629,-105.143
204373,"3301 North Tower Road","Aurora","CO",80011,106,39.7635,-104.773
145130,"3475 N Salida Court","Aurora","CO",80011,79,39.7638,-104.778
220070,"3445 N. SALIDA ST","AURORA","CO",80011,109,39.7642,-104.774
187149,"3410 Youngfield","Wheatridge","CO",80033,106,39.7643,-105.142
183775,"3455 N. Salida St.","Aurora","CO",80011,104,39.7646,-104.774
160756,"3511 N Salida Ct","Aurora,","CO",80011,84,39.7646,-104.778
149008,"3451 N Tower Rd","Aurora","CO",80011,78,39.7646,-104.772
6147,"3400 Youngfield St","Wheat Ridge","CO",80033,1,39.7647,-105.142
225681,"3500 Youngfield Street","Wheat Ridge","CO",80033,105,39.7649,-105.142
216922,"3450 North Tower Rd.","Aurora","CO",80011,108,39.7651,-104.772
157120,"3540 YOUNGFIELD ST","WHEAT RIDGE","CO",80033,82,39.7651,-105.14
196895,"7305 E 35th Ave","Denver","CO",80238,106,39.7652,-104.9
195876,"106 N Rubey Drive","Golden","CO",80403,106,39.7655,-105.234
223161,"7305 EAST 35TH AVENUE","DENVER","CO",80238,109,39.7656,-104.902
54068,"3990 E. 35TH","DENVER","CO",80205,28,39.7656,-104.941
116371,"7305 E. 35th Avenue","Denver","CO",80207,57,39.7656,-104.903
157602,"7505 E 35TH AVE  BLDG 3  STE 3","DENVER","CO",80238,82,39.7661,-104.9
203612,"3600 Youngfield St","Wheat Ridge","CO",80033,106,39.7661,-105.142
89262,"7805 E 35Th Ave","Denver","CO",80238,47,39.7662,-104.898
28670,"3600 Youngfield St","Wheat Ridge","CO",80033,4,39.7663,-105.141
137070,"1717 West 38th Avenue","Denver","CO",80211,75,39.7665,-105.02
192061,"3083 Brighton Blvd","Denver","CO",80216,106,39.7665,-104.985
167983,"3700 Quebec Street","Denver","CO",80207,97,39.7685,-104.902
188566,"3615 West Bowles Ave.","Littleton","CO",80123,106,39.7686,-104.848
177743,"1131 E. 120th Ave.","Thornton","CO",80212,99,39.769,-105.048
52090,"2500 WEST 38TH AVE","DENVER","CO",80211,28,39.7692,-105.018
56399,"3190 WEST 38TH AVE.","DENVER","CO",80211,28,39.7692,-105.029
55024,"399 N. WASHINGTON AVENUE","GOLDEN","CO",80403,28,39.7692,-105.236
191798,"1777 W 38th Ave","Denver","CO",80211,106,39.7693,-105.007
177738,"4700 W. 38th Ave.","Denver","CO",80212,99,39.7694,-105.048
187602,"5397 W 38th Ave W","Wheat Ridge","CO",80212,106,39.7696,-105.055
55448,"3810 FEDERAL BLVD","DENVER","CO",80211,28,39.7696,-105.025
54361,"1301 WEST 38TH AVE","DENVER","CO",80211,28,39.7697,-105.002
2301,"7800 Smith Rd","Denver","CO",80207,4,39.7697,-104.898
15998,"3817 Sheridan Blvd","Wheat Ridge","CO",80212,1,39.7701,-105.055
239980,"3820 N. Wadsworth Blvd.","Wheat Ridge","CO",80033,121,39.7701,-105.081
145115,"3870 Quebec Street","Denver","CO",80207,79,39.7702,-104.902
202918,"7800 E Smith Rd","Denver","CO",80207,106,39.7711,-104.898
33224,"3900 Wadsworth Blvd","Wheat Ridge","CO",80033,2,39.7712,-105.081
210020,"7777 W 38th Avenue","Wheat Ridge","CO",80033,106,39.7715,-105.08
230156,"16495 East 40th Circle, Suite A","Aurora","CO",80011,116,39.7723,-104.797
50463,"3995 N LEWISTON SUITE 106","AURORA","CO",80011,28,39.7726,-104.799
55918,"3992 HAVANA ST","DENVER","CO",80239,28,39.7727,-104.865
204503,"4001 N Colorado Blvd","Denver","CO",80216,106,39.7732,-104.941
196183,"15470 Andrews Dr","Denver","CO",80239,106,39.7736,-104.809
225354,"15470 Andrews Drive","Denver","CO",80239,105,39.7738,-104.808
135663,"3800 North Wadsworth","Wheatridge","CO",80033,75,39.774,-105.096
139059,"4945 Kipling","Wheatridge","CO",80033,75,39.774,-105.096
70728,"6090 W 44th Ave","Wheat Ridge","CO",80033,35,39.7762,-105.064
210563,"5957 West 44th Ave","Lakeside","CO",80212,106,39.7766,-105.058
34524,"5957 W. 44Th Ave","Wheat Ridge","CO",80212,4,39.7766,-105.061
33012,"3800 W. 44TH Ave","Denver","CO",80211,2,39.7767,-105.037
36437,"4401 WADSWORTH BLVD","Wheat Ridge","CO",80033,5,39.7771,-105.082
138021,"Denver International Airport","Denver","CO",80249,75,39.7783,-104.756
54817,"4500 PEORIA STREET","DENVER","CO",80239,28,39.7784,-104.847
228133,"4505 Peoria St","Denver","CO",80239,115,39.7784,-104.848
53793,"3200 EAST 45TH AVE","DENVER","CO",80216,28,39.779,-104.95
203613,"8286 E 49th","Denver","CO",80239,106,39.7796,-104.863
53690,"12880 ALLBROOK DR.","DENVER","CO",80239,28,39.7806,-104.842
228161,"4640 Pecos St","Denver","CO",80211,115,39.7809,-105.006
198674,"4660 Peoria St","Denver","CO",80239,106,39.7811,-104.846
54169,"1670 E 47TH AVE","DENVER","CO",80216,28,39.782,-104.967
54894,"1595 W. 47TH AVENUE","DENVER","CO",80211,28,39.7821,-105.006
53571,"4708 WASHINGTON","DENVER","CO",80216,28,39.7821,-104.979
54320,"4701 PEORIA","DENVER","CO",80239,28,39.7824,-104.849
68521,"4701 Peoria St #123","Denver","CO",80239,35,39.7827,-104.848
73215,"4775 N Yampa Street","Denver","CO",80249,35,39.7832,-104.774
138429,"3051 East 45th Avenue","Denver","CO",80216,75,39.7835,-104.967
139875,"520 East 58th Avenue","Denver","CO",80216,75,39.7835,-104.967
55351,"4709 N TOWERS RD","DENVER","CO",80249,28,39.7836,-104.772
38133,"18550 GREEN VALLEY RANCH BLVD","Denver","CO",80249,5,39.7837,-104.771
68680,"1515 W 48th Ave.","Denver","CO",80221,35,39.7839,-105.005
200294,"5135 Chambers Rd","Denver","CO",80239,106,39.7848,-104.813
3007,"18605 Green Valley Ranch Blvd","Denver","CO",80249,1,39.7849,-104.77
33003,"4884 Chambers Rd.","Denver","CO",80239,2,39.7849,-104.81
198451,"18611 E 48TH AVE","Denver","CO",80249,106,39.7851,-104.768
246084,"8104 49TH AVE.","DENVER","CO",80238,138,39.7852,-104.898
225536,"8286 E. Northfield Boulevard","Denver","CO",80238,105,39.7852,-104.892
201403,"7120 E 49th Ave","Commerce City","CO",80022,106,39.7852,-104.905
34153,"5141 Chambers Rd","Denver","CO",80239,4,39.7858,-104.811
192357,"4990 Kipling St","Wheatridge","CO",80033,106,39.7868,-105.109
2293,"5071 Kipling St","Wheat Ridge","CO",80033,3,39.7872,-105.112
223491,"5091 KIPLING ST","ARVADA","CO",80002,109,39.7874,-105.11
136729,"4600 Peoria Street","Denver","CO",80239,75,39.7878,-104.829
1715,"7930 Northfield Blvd","Denver","CO",80238,3,39.7886,-104.9
52402,"5010 KIPLING","WHEAT RIDGE","CO",80033,28,39.7887,-105.109
91581,"5195 Wadsworth Blvd.","Arvada","CO",80002,46,39.7894,-105.083
230192,"5131 Kipling Street, Suite 610","Wheat Ridge","CO",80033,116,39.7897,-105.11
187700,"5115 North Federal","Denver","CO",80221,106,39.7897,-105.027
228050,"5095 Kipling St","Wheat Ridge","CO",80033,115,39.7901,-105.11
225533,"5095 Kipling Street","Arvada","CO",80002,105,39.7905,-105.11
186864,"7310 W 52nd Ave","Arvada","CO",80002,106,39.7908,-105.078
89608,"7370 W 52Nd Ave","Arvada","CO",80002,47,39.791,-105.079
64427,"5300 Sheridan Blvd","Arvada","CO",80002,34,39.7929,-105.053
183897,"5324 Wadsworth Blvd.","Arvada","CO",80002,104,39.7929,-105.081
229886,"5545 Wadsworth Bypass, Suite B","Arvada","CO",80002,116,39.7935,-105.08
145087,"5215 Wadsworth Blvd","Arvada","CO",80002,79,39.7935,-105.082
157139,"5285 WADSWORTH BYP","ARVADA","CO",80002,82,39.794,-105.083
51517,"5405 MARSHALL","ARVADA","CO",80002,28,39.7945,-105.069
138156,"7470 West 52nd. Avenue","Arvada","CO",80002,75,39.7945,-105.098
73174,"5418 Federal Blvd.","Denver","CO",80221,35,39.7955,-105.024
146618,"5405 WADSWORTH BYPASS","ARVADA","CO",80002,80,39.7956,-105.078
200996,"5601 S. Quebec St.,","Commerce Ciity","CO",80022,106,39.7991,-104.904
202396,"5790 Clarkson St","Denver","CO",80216,106,39.8017,-104.976
56312,"5785 WARD RD","ARVADA","CO",80002,28,39.8018,-105.138
191717,"9584 W 58th Ave","Arvada","CO",80002,106,39.8018,-105.104
11531,"9731 W 58th Ave","Arvada","CO",80002,1,39.802,-105.107
27682,"9517 Ralston Rd.","Arvada","CO",80002,2,39.802,-105.104
24688,"9365 W 58th Ave","Arvada","CO",80002,35,39.8021,-105.102
50088,"7355 RALSTON RD UNIT R100 (WADSWORTH)","ARVADA","CO",80002,28,39.8023,-105.077
34095,"5990 Dahlia St","Commerce City","CO",80022,4,39.8046,-104.929
183319,"5988 Dahlia St.","Commerce City","CO",80022,104,39.8046,-104.931
38503,"6011 DEXTER ST","Commerce City","CO",80022,5,39.8064,-104.933
192513,"6075 E Parkway Dr","Commerce City","CO",80022,106,39.8074,-104.929
15961,"4850 E 62nd Ave","Commerce City","CO",80022,1,39.8086,-104.93
4820,"15200 W 64th Ave","Arvada","CO",80007,1,39.811,-105.172
179085,"6350 SHERIDAN BLVD #114","ARVADA","CO",80003,83,39.8111,-105.052
11169,"6350 Sheridan Blvd","Arvada","CO",80003,1,39.8111,-105.052
222262,"6350 SHERIDAN AVE","ARVADA","CO",80003,109,39.8117,-105.053
12819,"12350 W 64th Ave","Arvada","CO",80004,1,39.8117,-105.137
37874,"6390 McIntyre  Pkwy","Arvada","CO",80403,5,39.8118,-105.169
199951,"15300 W 64th Ave","Arvada","CO",80007,106,39.812,-105.17
35801,"6395 SHERIDAN BLVD","Arvada","CO",80003,5,39.8123,-105.054
189073,"12304 W 64th Ave","Arvada","CO",80004,106,39.8123,-105.136
223193,"12326 WEST 64TH AVE","ARVADA","CO",80004,109,39.8126,-105.137
225849,"14575 West 64th Avenue","Arvada","CO",80004,105,39.8126,-105.162
183645,"12550 West 64th Ave.","Arvada","CO",80004,104,39.8126,-105.139
33144,"12680 W. 64th Avenue","Arvada","CO",80004,2,39.8127,-105.14
35938,"11602 W 64TH AVE","Arvada","CO",80004,5,39.8127,-105.128
54058,"650 E. 64TH AVE","DENVER","CO",80229,28,39.8127,-104.979
70345,"5187 W 64th Ave","Arvada","CO",80003,35,39.8128,-105.053
190015,"6406 Wadsworth Blvd","Arvada","CO",80003,106,39.8131,-105.081
73497,"5947 E 64th Ave","Commerce City","CO",80022,35,39.8132,-104.919
52526,"6490 WARD RD","ARVADA","CO",80004,28,39.8135,-105.138
34135,"14605 W 64Th Ave","Arvada","CO",80004,4,39.8141,-105.163
137972,"12580 West 64th. Avenue","Arvada","CO",80004,75,39.8141,-105.118
227768,"14715 W 64th Ave","Arvada","CO",80004,115,39.8146,-105.164
71511,"6510 Wadsworth Blvd","Arvada","CO",80003,35,39.815,-105.081
38558,"6603 WADSWORTH BLVD","Arvada","CO",80003,5,39.8167,-105.082
24015,"6725 N WADSWORTH","ARVADA","CO",80003,28,39.819,-105.082
55701,"7080 TOWER RD","DENVER","CO",80249,28,39.8253,-104.772
140620,"5101 Quebec St","Denver","CO",80022,75,39.8259,-104.911
68501,"7067 Pecos St","Denver","CO",80221,35,39.826,-105.006
53322,"6302 E. 72ND AVE.","COMMERCE CITY","CO",80022,28,39.8271,-104.916
24085,"7201 LOWELL BLVD","WESTMINSTER","CO",80030,28,39.8275,-105.035
228134,"7211 Sheridan Blvd","Westminster","CO",80003,115,39.8276,-105.053
71094,"6071 E 72nd Ave","Commerce City","CO",80022,35,39.8276,-104.918
4655,"7211 FEDERAL BLVD","Westminster","CO",80030,5,39.8277,-105.026
53192,"7211 PECOS ST","DENVER","CO",80221,28,39.8277,-105.007
192421,"7260 Broadway","Denver","CO",80221,106,39.8282,-104.987
136983,"5255 West 80th Avenue","Arvada","CO",80003,75,39.8286,-105.065
51518,"7270 BROADWAY","DENVER","CO",80221,28,39.8288,-104.987
55256,"5241 72ND AVE","WESTMINSTER","CO",80003,28,39.8289,-105.053
186749,"7312 Federal Blvd","Westminster","CO",80030,106,39.8292,-105.024
33257,"7353 Federal Blvd","Westminster","CO",80030,2,39.83,-105.025
66637,"7400 Hwy 2","Commerce City","CO",80022,34,39.8315,-104.91
51520,"7540 PECOS ST.","DENVER","CO",80221,28,39.8335,-105.006
210991,"7680 Pena Blvd","Adams","CO",80022,106,39.8343,-104.692
167985,"7739 Wadsworth Boulevard","Arvada","CO",80003,97,39.8375,-105.083
134244,"7255 North Pecos Street","Denver","CO",80221,75,39.838,-104.999
134424,"4875 North Federal Blvd.","Denver","CO",80221,75,39.838,-104.999
685,"7155 Sheridan Blvd","Westminster","CO",80003,4,39.8397,-105.053
1866,"7899 Wadsworth Blvd","Arvada","CO",80003,3,39.8401,-105.085
40196,"7930 WADSWORTH BLVD","Arvada","CO",80003,5,39.8403,-105.081
3787,"7561 W. 80th Ave.","Arvada","CO",80003,2,39.8419,-105.081
52420,"8002 CHASE DR","ARVADA","CO",80003,28,39.8421,-105.057
135957,"7613 West 88th Avenue","Westminster","CO",80005,75,39.8422,-105.11
192425,"8050 Kipling Street","Arvada","CO",80005,106,39.8429,-105.11
225348,"8031 Wadsworth Blvd.","Arvada","CO",80003,105,39.843,-105.082
8870,"8031 Wadsworth Blvd","Arvada","CO",80003,1,39.8433,-105.083
186203,"8025 Sheridan Blvd.","Arvada","CO",80003,106,39.8435,-105.054
13593,"8055 Sheridan Blvd","Arvada","CO",80003,1,39.8438,-105.053
216883,"8071 Wadsworth Blvd","Arvada","CO",80003,108,39.844,-105.082
64379,"8175 Sheridan Blvd Unit M","Arvada","CO",80003,34,39.8448,-105.053
227083,"8400 Pena Blvd Concourse A","Denver","CO",80249,115,39.8469,-104.669
227084,"8400 Pena Blvd Concourse B","Denver","CO",80249,115,39.8469,-104.669
74817,"1575 W 84th Ave","Federal Heights","CO",80260,1,39.8491,-105.006
187577,"1509 W 84th Ave","Federal Heights","CO",80221,106,39.8491,-105.003
36623,"1601 W 84TH AVE","Federal Heights","CO",80260,5,39.8493,-105.007
54113,"8378 SHERIDAN BLVD","WESTMINSTER","CO",80003,28,39.8496,-105.053
227883,"8426 Pearl St","Thornton","CO",80229,115,39.8497,-104.979
70450,"8495 Pecos St","Federal Heights","CO",80260,35,39.8511,-105.007
198825,"8501 Grant St","Thornton","CO",80229,106,39.8518,-104.984
185822,"8650 N Washington St","Thornton","CO",80229,106,39.8535,-104.977
188652,"8700 Wadsworth Blvd #A","Arvada","CO",80003,106,39.8549,-105.081
34134,"850 E 88Th Ave","Thornton","CO",80229,4,39.8551,-104.975
147587,"5600 WEST 88TH AVENUE","WESTMINSTER","CO",80031,80,39.8552,-105.057
227491,"8770 Wadsworth Blvd","Arvada","CO",80003,115,39.8557,-105.08
36763,"8799 WASHINGTON ST","Thornton","CO",80229,5,39.8558,-104.979
183258,"8797 Wadsworth Blvd.","Arvada","CO",80003,104,39.8559,-105.082
53886,"2500 E 88TH AVENUE","THORNTON","CO",80229,28,39.8561,-104.955
56528,"8820 N COLORADO BLVD","THORNTON","CO",80229,28,39.8562,-104.94
68943,"831 E 88th Ave","Thornton","CO",80229,35,39.8563,-104.976
164043,"5650 W. 88TH AVENUE","WESTMINSTER","CO",80030,93,39.8564,-105.059
53552,"1066 EAST 88TH AVE.","THORNTON","CO",80229,28,39.8564,-104.973
148379,"7475 W 88th Ave","Westminster","CO",80021,78,39.8565,-105.08
145102,"7125 W 88th Ave","Westminster","CO",80021,79,39.8566,-105.076
52414,"8801 HURON ST","THORNTON","CO",80221,28,39.8572,-104.998
178228,"8500 Pena Blvd, Concourse B","Denver","CO",80249,100,39.8589,-104.674
91491,"6400 West 92nd Avenue","Westminster","CO",80031,46,39.862,-105.066
192341,"5076 W 92nd Ave","Westminster","CO",80031,106,39.8629,-105.052
70534,"2010 W 92nd Ave","Federal Heights","CO",80260,35,39.8632,-105.011
51908,"1600 WEST 92ND AVE","FEDERAL HEIGHTS","CO",80221,28,39.8632,-105.007
140353,"15240 W. 64th Avenue","Arvada","CO",80007,75,39.8634,-105.172
53414,"9201 FEDERAL BLVD","WESTMINSTER","CO",80221,28,39.8639,-105.026
210769,"9213 Huron Street","Thornton","CO",80260,106,39.8646,-104.997
91250,"9229 N. Sheridan Blvd.","Westminster","CO",80031,48,39.8651,-105.055
239814,"9269 Sheridan Blvd.","Westminster","CO",80031,121,39.8658,-105.053
164275,"9330 SHERIDAN BOULEVARD","WESTMINSTER","CO",80030,94,39.8662,-105.053
134165,"666 East 104th Avenue","Northglenn","CO",80229,75,39.8671,-104.923
138491,"301 West 84th Street","Thornton","CO",80260,75,39.8672,-105.004
160234,"9369 Sheridan Blvd Wesfield Village Center","Westminster,","CO",80030,84,39.8672,-105.055
225714,"9379 Sheridan Blvd","Westminster","CO",80031,105,39.8676,-105.053
73198,"9410 Federal Boulevard","Federal Heights","CO",80260,35,39.8676,-105.025
229907,"9392 Sheridan Blvd.","Westminster","CO",80030,116,39.8678,-105.053
34021,"9499 Sheridan Blvd","Westminster","CO",80031,4,39.868,-105.054
17006,"771 Thornton Pkwy","Thornton","CO",80229,2,39.8708,-104.976
183661,"815 Thornton Parkway","Thornton","CO",80229,104,39.8708,-104.977
89246,"9601 Grant St","Thornton","CO",80229,47,39.8722,-104.984
158567,"6735 W. 88TH AVE","WESTMINSTER","CO",80031,83,39.8753,-105.035
1486,"9901 Grant St","Thornton","CO",80229,4,39.8758,-104.986
221335,"10001 GRANT DRIVE","THORNTON","CO",80229,109,39.8761,-104.985
9546,"9983 Wadsworth Pkwy","Westminster","CO",80030,1,39.877,-105.095
36504,"9970 WADSWORTH PKWY","Westminster","CO",80021,5,39.8777,-105.095
191807,"9987 Wadsworth Parkway","Westminster","CO",80021,106,39.8778,-105.098
225605,"10018 Grant Street","Thornton","CO",80229,105,39.8781,-104.984
21096,"8543 Church Ranch Blvd","Westminster","CO",80021,2,39.8786,-105.093
230226,"NW Center Core","Denver","CO",80249,116,39.8787,-104.682
145088,"10003 Grant Street","Denver","CO",80229,79,39.8792,-104.984
24078,"10128 N WADSWORTH","WESTMINSTER","CO",80021,28,39.88,-105.096
186750,"10343 N Federal Blvd","Westminster","CO",80260,106,39.8823,-105.027
14597,"10351 Federal Blvd","Westminster","CO",80260,1,39.8833,-105.027
160842,"104 W 104th Ave","Denver,","CO",80234,84,39.8836,-104.988
3174,"10300 Federal Blvd","Federal Heights","CO",80260,2,39.8836,-105.025
183255,"10320 Federal Blvd.","Federal Heights","CO",80260,104,39.8839,-105.025
39143,"10337 WASHINGTON ST","Thornton","CO",80229,5,39.8839,-104.978
179084,"10355 FEDERAL BLVD STE #E","WESTMINSTER","CO",80260,83,39.8839,-105.027
10053,"750 E 104th Ave Unit A","Thornton","CO",80233,1,39.8841,-104.977
192719,"10376 N Colorado Blvd","Thornton","CO",80229,106,39.8843,-104.94
216887,"10355 Federal Blvd","Westminster","CO",80260,108,39.8844,-105.025
2506,"10390 FEDERAL BLVD","Federal Heights","CO",80260,5,39.8848,-105.024
205668,"18220 E 104th Ave.","Commerce City","CO",80022,106,39.8849,-104.775
221980,"10350 FEDERAL BLVD","FEDERAL HEIGHTS","CO",80221,109,39.8849,-105.024
116375,"2690 W. 104th Ave, Ste 100","Federal Heights","CO",80234,57,39.885,-105.02
217790,"3905 EAST 104TH AVENUE","THORNTON","CO",80233,109,39.885,-104.942
187063,"10390 N Washington St","Thornton","CO",80229,106,39.8853,-104.98
50447,"6990 CHURCH RANCH BLVD @ REED ST","WESTMINSTER","CO",80021,28,39.8853,-105.075
10495,"3905 East 104th Avenue","Thornton","CO",80233,12,39.8855,-104.941
55286,"15610 E. 104TH AVE.","COMMERCE CITY","CO",80022,28,39.8855,-104.809
37298,"4351 E 104TH AVE","Thornton","CO",80233,5,39.8855,-104.936
12549,"15051 E. 104th Ave","Commerce City","CO",80022,1,39.8856,-104.812
54349,"10410 MELODY DRIVE","NORTHGLENN","CO",80234,28,39.8857,-104.993
225475,"10431 Town Center Drive","Westminster","CO",80021,105,39.8868,-105.075
72,"10445 Reed St","Westminster","CO",80021,3,39.8872,-105.073
167987,"10450 Town Center Drive","Westminster","CO",80021,97,39.8878,-105.077
157140,"10600 MELODY DR","NORTHGLENN","CO",80234,82,39.888,-104.992
146582,"261 WEST 104TH AVENUE","NORTHGLENN","CO",80234,80,39.8889,-104.989
161016,"10655 Westminster Blvd.","Westminster","CO",80020,85,39.8894,-105.07
161356,"10655 Westminster Blvd.","Westminster","CO",80020,86,39.8894,-105.07
157779,"10460 TOWN CENTER DRIVE","WESTMINSTER","CO",80021,82,39.8896,-105.075
71504,"1750 E 112th Ave","Northglenn","CO",80233,35,39.8991,-104.965
52416,"3901 EAST 112TH AVE","THORNTON","CO",80233,28,39.8997,-104.941
56159,"5190 W 113TH AVE","WESTMINSTER","CO",80031,28,39.9013,-105.053
136641,"650 East 120th Avenue","Northglenn","CO",80233,75,39.9015,-104.941
158558,"450 E 120TH AVE, UNIT A2","NORTHGLENN","CO",80233,83,39.9015,-104.941
51526,"11421 WASHINGTON","NORTHGLENN","CO",80233,28,39.9039,-104.978
136164,"2998 West 104th Avenue","Federal Heights","CO",80234,75,39.9108,-105.011
229987,"5180 West 120th Ave","Broomfield","CO",80020,116,39.9122,-105.053
178236,"5160 W. 120th Ave., Ste. J","Westminster","CO",80020,100,39.9125,-105.052
221968,"420 EAST 120TH AVE","NORTHGLENN","CO",80233,109,39.913,-104.982
752,"5190 W 120TH AVE","Broomfield","CO",80020,5,39.9131,-105.052
37178,"750 E 120TH AVE","Northglenn","CO",80233,5,39.9134,-104.977
27741,"3904 E. 120TH. Ave.","Thornton","CO",80229,2,39.9138,-104.941
116382,"832 East 120th Avenue","Northglenn","CO",80233,57,39.9141,-104.978
183574,"5160 W. 120th Ave.","Westminster","CO",80020,104,39.9141,-105.052
183381,"951 E. 120th Ave.","Thornton","CO",80233,104,39.9141,-104.975
148639,"901 W 120th Ave","Denver","CO",80234,78,39.9141,-104.999
225345,"1005 W. 120th Avenue","Westminster","CO",80234,105,39.9141,-105
187291,"3929-B E 120th Ave","Thornton","CO",80229,106,39.9142,-104.941
197619,"852 E 120th Ave","Northglenn","CO",80241,106,39.9143,-104.98
35774,"4001 E 120TH AVE","Thornton","CO",80233,5,39.9143,-104.939
33158,"6775 W. 120TH Ave.","Broomfield","CO",80020,2,39.9144,-105.072
246028,"1251 E 120TH AVE","THORNTON","CO",80233,138,39.9145,-104.973
186933,"1005 W. 120th Ave","Westminster","CO",80234,106,39.9145,-104.994
5629,"3801 E 120th Ave","Thornton","CO",80233,1,39.9147,-104.943
53636,"12057 PECOS","WESTMINSTER","CO",80234,28,39.9147,-105.007
216901,"4530 W. 121st Ave","Broomfield","CO",80020,108,39.9147,-105.045
246540,"4480 West 121st Avenue","Broomfield","CO",80020,137,39.9147,-105.044
196704,"1260 East 1st Ave","Broomfield","CO",80020,106,39.9147,-105.057
225659,"4550 West 121st Avenue","Broomfield","CO",80020,105,39.9148,-105.046
222055,"6765 WEST 120TH ST","BROOMFIELD","CO",80020,109,39.9149,-105.071
186120,"6811 W 120 Ave","Broomfield","CO",80020,106,39.915,-105.072
369,"1001 E 120th Ave","Thornton","CO",80233,3,39.9161,-104.975
21392,"4651 W 121St Ave","Broomfield","CO",80020,4,39.9163,-105.046
199963,"4651 W 121st Ave","Broomfield","CO",80020,106,39.9163,-105.046
2416,"12167 Sheridan Blvd","Broomfield","CO",80020,1,39.9165,-105.055
145109,"12169 Sheridan Blvd","Broomfield","CO",80020,79,39.9172,-105.053
38849,"570 US HIGHWAY 287","Broomfield","CO",80020,5,39.9224,-105.09
136671,"6801 West 120th Avenue","Broomfield","CO",80020,75,39.9245,-105.061
158762,"12163 N. SHERIDAN BLVD","BROOMFIELD","CO",80020,83,39.9245,-105.061
190429,"555 US Hwy 287","Broomfield","CO",80020,106,39.9249,-105.091
100,"500 Summit Blvd","Broomfield","CO",80021,4,39.9265,-105.137
202962,"500 Summit Blvd","Broomfield","CO",80021,106,39.9267,-105.137
205354,"7101 E. 128th Street","Thornton","CO",80241,106,39.9285,-104.96
37671,"1600 COALTON RD","Superior","CO",80027,5,39.9286,-105.147
15121,"2400 E MIDWAY BLVD","Denver","CO",80234,5,39.9287,-105.024
33282,"1601 Coalton Rd.","Superior","CO",80027,2,39.9289,-105.149
195792,"1621 Coalton Rd","Superior","CO",80027,106,39.929,-105.139
56146,"12802 LOWELL BLV","BROOMFIELD","CO",80020,28,39.929,-105.034
54185,"12920 LOWELL BLVD SPACE A","BROOMFIELD","CO",80020,28,39.9296,-105.034
201841,"One W FlatIron Crossing Dr","Broomfield","CO",80021,106,39.93,-105.135
196315,"12910 North Zuni St","Westminster","CO",80234,106,39.93,-105.014
216875,"635A Flatiron Marketplace Dr","Broomfield","CO",80021,108,39.9301,-105.127
33287,"12900 Zuni St.","Westminster","CO",80234,2,39.9301,-105.015
197694,"645 Flatiron Market Pl","Broomfield","CO",80021,106,39.9302,-105.127
161009,"61 West Flatiron Crossing Dr.","Broomfield","CO",80021,85,39.9304,-105.135
161349,"61 West Flatiron Crossing Dr.","Broomfield","CO",80021,86,39.9304,-105.135
251086,"100 E. FLATIRON CIRCLE","BROOMFIELD","CO",80020,153,39.9306,-105.121
17,"7101 E 128Th Ave","Brighton","CO",80602,4,39.9308,-104.906
216872,"1100 Hwy 287 at Miramonte","Broomfield","CO",80020,108,39.9313,-105.089
160213,"271 E Flatiron Cir","Broomfield,","CO",80020,84,39.9314,-105.121
222676,"1 FLAT IRON CIRCLE","BROOMFIELD","CO",80020,109,39.9319,-105.133
163441,"1 W. FLATIRON CROSSINGS","BROOMFIELD","CO",80021,93,39.9329,-105.132
31164,"1150 Us Hwy 287","Broomfield","CO",80020,1,39.933,-105.091
254247,"1 West Flat Iron Circle","Broomfield","CO",80021,157,39.9348,-105.134
611,"200 W 136Th Ave","Westminster","CO",80234,4,39.9409,-104.991
135180,"1505 East Bridge Street","Brighton","CO",80601,75,39.943,-104.787
13888,"13611 COLORADO BLVD","Thornton","CO",80602,5,39.9435,-104.941
204835,"13644 Orchard Parkway","Westminster","CO",80820,106,39.9442,-104.989
2764,"2355 W 136th Ave","Broomfield","CO",80023,1,39.9443,-105.014
147768,"13650 ORCHARD PARKWAY","WESTMINSTER","CO",80023,80,39.9445,-104.991
15544,"13700 Colorado Blvd","Thornton","CO",80602,1,39.9445,-104.938
197444,"13762 N Colorado Blvd","Thornton","CO",80241,106,39.9454,-104.939
149045,"2211 Prairie Center Parkway","Brighton","CO",80601,78,39.9469,-104.787
145126,"2440 Buckley Road","Brighton","CO",80601,79,39.9505,-104.79
158002,"2435 PRARIE CENTER PARKWAY","BRIGHTON","CO",80601,82,39.9517,-104.785
37988,"191 MCCASLIN BLVD","Louisville","CO",80027,5,39.952,-105.165
222091,"2237 PRAIRIE PARKWAY","BRIGHTON","CO",80601,109,39.9527,-104.78
228176,"2237 Prairie Center Pkwy","Brighton","CO",80601,115,39.9539,-104.779
205880,"2315 Prairie Center Parkway","Brighton","CO",80601,106,39.9556,-104.775
157458,"402 CENTER DR","SUPERIOR","CO",80027,82,39.9557,-105.171
167990,"302 Center Drive","Superior","CO",80027,97,39.956,-105.169
18621,"400 Marshall Rd","Superior","CO",80027,3,39.9564,-105.173
28,"2171 Prairie Center Pkwy","Brighton","CO",80601,3,39.9564,-104.777
197443,"3700 W 144 Ave","Broomfield","CO",80020,106,39.9573,-105.034
33505,"3602 W. 144th Ave.","Broomfield","CO",80020,2,39.9577,-105.034
91209,"303 Marshall Rd.","Superior","CO",80027,48,39.9578,-105.172
251152,"14416 DELAWARE ST","WESTMINSTER","CO",80023,153,39.9581,-104.991
89,"14451 Orchard Pkwy","Westminster","CO",80023,3,39.9584,-104.989
91517,"600 Marshall Road","Superior","CO",80027,46,39.959,-105.174
223231,"14663 ORCHARD PARKWAY","WESTMINSTER","CO",80023,109,39.9607,-104.993
192804,"1116 W Dillon Rd","Louisville","CO",80027,106,39.9608,-105.166
146566,"1171 DILLON ROAD","LOUISVILLE","CO",80027,80,39.9611,-105.163
216877,"1100 W. Dillon Road","Louisville","CO",80027,108,39.9616,-105.166
161010,"14653 Orchard Pkwy","Westminster","CO",80023,85,39.9622,-104.995
161350,"14653 Orchard Pkwy","Westminster","CO",80023,86,39.9622,-104.995
145091,"1200 W Dillon Rd","Louisville","CO",80027,79,39.9622,-105.169
148577,"585 McCaslin Blvd","Louisville","CO",80027,78,39.9623,-105.164
254258,"14697 Delaware Street","Westminster","CO",80020,157,39.9625,-104.992
183293,"375 S. McCaslin Blvd.","Louisville","CO",80027,104,39.9648,-105.164
225667,"459 S. McCaslin Blvd.","Louisville","CO",80027,105,39.9649,-105.164
54219,"300 SOUTH MCCASLIN BLVD","LOUISVILLE","CO",80027,28,39.9666,-105.165
147801,"4980 EAST BROMLEY LANE","BRIGHTON","CO",80601,80,39.9691,-104.758
196182,"450 E Bromley Ln","Brighton","CO",80601,106,39.97,-104.817
4267,"60 W Bromley Ln","Brighton","CO",80601,4,39.9704,-104.824
22399,"500 E Bromley Ln","Brighton","CO",80601,1,39.9707,-104.817
203558,"60 W Bromley La","Brighton","CO",80601,106,39.9719,-104.823
202241,"200 Exempla Cir","Lafayette","CO",80026,106,39.9727,-105.088
162272,"1164 W. Dillon Road","Louisville","CO",80027,87,39.9778,-105.132
162685,"1164 W. Dillon Road","Louisville","CO",80027,88,39.9778,-105.132
137721,"1325 E South Boulder Rd","Louisville","CO",80027,75,39.9789,-105.146
161283,"250 Pavilions Place","Brighton","CO",80601,85,39.9827,-104.824
161623,"250 Pavilions Place","Brighton","CO",80601,86,39.9827,-104.824
225472,"275 Pavillions Place","Brighton","CO",80601,105,39.9829,-104.824
22921,"3600 Table Mesa Dr","Boulder","CO",80305,1,39.9835,-105.252
201824,"5200 Manhattan Cir","Boulder","CO",80303,106,39.9855,-105.229
51521,"1012 BRIDGE ST","BRIGHTON","CO",80601,28,39.9866,-104.81
222057,"1387 S. BOULDER RD","LOUISVILLE","CO",80027,109,39.9867,-105.128
177741,"555 W. South Boulder Rd.","Lafayette","CO",80026,99,39.9867,-105.095
188950,"400 W South Boulder Rd","Lafayette","CO",80026,106,39.9867,-105.093
33551,"1605 Bridge St.","Brighton","CO",80601,2,39.9868,-104.802
202958,"1335 S. Boulder Road","Louisville","CO",80027,106,39.9868,-105.124
228635,"535 South Boulder Rd","Lafayette","CO",80026,115,39.987,-105.089
35178,"655 E SOUTH BOULDER RD","Louisville","CO",80027,5,39.987,-105.135
22456,"1375 E South Boulder Rd","Louisville","CO",80027,1,39.987,-105.125
188279,"1543 E Bridge St","Brighton","CO",80601,106,39.987,-104.805
37599,"1821 E BRIDGE ST","Brighton","CO",80601,5,39.9874,-104.8
71828,"1511 E Bridge St","Brighton","CO",80601,35,39.9875,-104.804
91542,"16375 N Washington St","Thornton","CO",80023,46,39.991,-104.982
145127,"16420 Washington Street","Thornton","CO",80023,79,39.9941,-104.978
149046,"16507 N Washington St","Thornton","CO",80023,78,39.9945,-104.978
163759,"16511 N. WASHINGTON STREET","THORNTON","CO",80023,93,39.9962,-104.978
157704,"16575 WASHINGTON STREET","BROOMFIELD","CO",80020,82,39.9976,-104.98
139212,"599 Crossing Drive","Lafayette","CO",80026,75,39.998,-105.096
190742,"2480 Baseline Rd.","Boulder","CO",80305,106,39.9986,-105.262
227078,"601 S Broadway St","Boulder","CO",80305,115,39.9987,-105.263
18890,"4800 Baseline Rd Bldg E 107","Boulder","CO",80303,12,39.9987,-105.236
216910,"2602 Baseline Road","Boulder","CO",80305,108,39.9994,-105.262
200069,"4760 Baseline Rd","Boulder","CO",80303,106,39.9996,-105.235
230019,"2400 Baseline Road","Boulder","CO",80303,116,39.9999,-105.263
33552,"4800 E. Baseline Rd.","Boulder","CO",80302,2,40,-105.234
205067,"16576 North Washington Street","Thornton","CO",80601,106,40.0002,-104.979
90983,"2584 Baseline Rd.","Boulder","CO",80305,48,40.0003,-105.261
37467,"309 US HIGHWAY 287","Lafayette","CO",80026,5,40.0007,-105.104
55346,"3240 VILLAGE VISTA DR","ERIE","CO",80516,28,40.0008,-105.018
4955,"480 Us Hwy 287","Lafayette","CO",80026,1,40.0013,-105.103
149036,"579 Highway 287 North","Lafayette","CO",80026,78,40.0026,-105.103
206168,"101 Willow Dr","Lochbuie","CO",80603,106,40.003,-104.716
72814,"160 Freestone St.","Lochbuie","CO",80603,35,40.0031,-104.749
221688,"1217 DIAMOND CIRCLE","LAFAYETTE","CO",80026,109,40.0043,-105.105
204489,"745 North Hwy 287","Lafayette","CO",80026,106,40.0055,-105.105
194006,"1669 Euclid Ave","Boulder","CO",80309,106,40.006,-105.271
31326,"745 Us Highway 287","Lafayette","CO",80026,4,40.0062,-105.105
178221,"1669 Euclid Ave.","Boulder","CO",80309,100,40.007,-105.272
55929,"1091 13TH","BOULDER","CO",80302,28,40.0071,-105.276
225449,"1119 13th Street","Boulder","CO",80302,105,40.0076,-105.276
246539,"1143 13th Street","Boulder","CO",80302,137,40.0082,-105.277
116364,"2755 Dagny Way","Lafayette","CO",80026,57,40.0129,-105.133
221107,"2430 ARAPAHOE ST","BOULDER","CO",80302,109,40.0142,-105.259
188879,"5290 E Arapahoe Ave","Boulder","CO",80303,106,40.0145,-105.228
185156,"2359 Arapahoe Ave","Boulder","CO",80302,106,40.0146,-105.263
18835,"2798 Arapahoe","Boulder","CO",80302,2,40.0146,-105.259
195308,"3335 Arapahoe Rd","Erie","CO",80516,106,40.0147,-105.096
40531,"4745 Arapahoe Ave, Suite 120","Boulder","CO",80303,5,40.0148,-105.237
178220,"3053 Arapahoe Ave.","Boulder","CO",80303,100,40.0149,-105.252
227249,"1606 Conestoga St","Boulder","CO",80301,115,40.0151,-105.228
33283,"3333 Arapahoe Rd. No.B","Erie","CO",80516,2,40.0152,-105.102
116376,"1650 28th St.","Boulder","CO",80301,57,40.0153,-105.258
145125,"1600 29th Street","Boulder","CO",80301,79,40.0155,-105.256
225324,"1625 28th Street","Boulder","CO",80301,105,40.0155,-105.259
7589,"1650 30th St","Boulder","CO",80301,1,40.0156,-105.254
216907,"1600 28th St","Boulder","CO",80301,108,40.0157,-105.258
183793,"1650 28th St.","Boulder","CO",80302,104,40.016,-105.258
54774,"1446 N 95TH STREET","LAFAYETTE","CO",80026,28,40.0163,-105.131
160684,"1740 30th St","Boulder,","CO",80301,84,40.0168,-105.253
230143,"1693 28th St","Boulder","CO",80302,116,40.0168,-105.258
183206,"919 Pearl St.","Boulder","CO",80302,104,40.0171,-105.284
158770,"2480 ARAPAHOE AVE","BOULDER","CO",80302,83,40.0172,-105.285
35456,"1830 30TH ST","Boulder","CO",80301,5,40.0187,-105.253
158027,"1850 30th Street","Boulder","CO",80301,82,40.0188,-105.252
246705,"1855 29th Street","Boulder","CO",80301,137,40.0193,-105.256
167993,"1855 29th Street","Boulder","CO",80301,97,40.0196,-105.257
178219,"1695 29th Street, Ste. 1256","Boulder","CO",80301,100,40.0197,-105.256
926,"2800 Pearl St","Boulder","CO",80301,3,40.0216,-105.257
91151,"2905 Pearl St","Boulder","CO",80301,48,40.0237,-105.256
91065,"1275 Alpine Ave.","Boulder","CO",80304,48,40.0259,-105.281
216870,"1245 Alpine","Boulder","CO",80304,108,40.026,-105.281
40443,"2870 28TH ST","Boulder","CO",80301,5,40.0283,-105.258
51519,"2605 VALMONT RD","BOULDER","CO",80304,28,40.0293,-105.263
227524,"3040 28th St","Boulder","CO",80301,115,40.0301,-105.258
187587,"3070 28th Ave","Boulder","CO",80301,106,40.0308,-105.258
19471,"3325 28th St.","Boulder","CO",80302,2,40.0347,-105.258
217777,"3348 NORTH 28TH STREET","BOULDER","CO",80301,109,40.035,-105.258
178218,"3325 28th Street","Boulder","CO",80301,100,40.0353,-105.26
16549,"3348 28th Street","Boulder","CO",80301,12,40.0355,-105.258
40504,"490 ERIE PKWY","Erie","CO",80516,5,40.036,-105.055
206522,"3652 Reliance Drive","Fredrick","CO",80516,106,40.037,-105.007
134144,"1770 - 28th Street","Boulder","CO",80301,75,40.0497,-105.214
137584,"5320 Spine Road","Boulder","CO",80301,75,40.0497,-105.214
203602,"4550 North Broadway","Boulder","CO",80304,106,40.055,-105.282
202789,"5280 Spine Rd","Boulder","CO",80301,106,40.0703,-105.202
227737,"5365 Spine Rd","Boulder","CO",80301,115,40.0718,-105.203
5187,"6550 Lookout Rd","Boulder","CO",80301,1,40.0728,-105.201
206301,"201 E Bison Hwy","Hudson","CO",80642,106,40.0749,-104.646
210207,"1200 Dexter St Unit W2","Ft Lupton","CO",80621,106,40.079,-104.803
33130,"1300 Dexter St.","Fort Lupton","CO",80621,2,40.079,-104.804
70910,"130 S Denver Ave","Fort Lupton","CO",80621,35,40.0798,-104.81
193467,"804 Denver Ave","Fort Lupton","CO",80621,106,40.0867,-104.81
70874,"1020 8th St","Dacano","CO",80514,35,40.0876,-104.934
56119,"6008 FREDERICK WAY","FREDERICK","CO",80530,28,40.0883,-104.93
195923,"7960 Niwot Rd","Niwot","CO",80503,106,40.1017,-105.164
137763,"25 South Grand Avenue","Fort Lupton","CO",80621,75,40.108,-104.801
33332,"8134 Weld County Road 13","Firestone","CO",80504,2,40.119,-104.94
198631,"8196 Weld County Rd","Firestone","CO",80504,106,40.1192,-104.94
140818,"4485 City Centre Rd.","Firestone","CO",80504,75,40.1306,-104.95
38501,"1770 HOVER ST","Longmont","CO",80501,5,40.1376,-105.131
163152,"1250 S. Hover Road","Longmont","CO",80501,91,40.1439,-105.131
163230,"1250 S. Hover Road","Longmont","CO",80501,92,40.1439,-105.131
225429,"2301 Clover Basin Drive","Longmont","CO",80503,105,40.1441,-105.133
230176,"2311 Clover Basin Drive","Longmont","CO",80503,116,40.1441,-105.131
220293,"1250 SOUTH HOVER ROAD","LONGMONT","CO",80501,109,40.1449,-105.13
148704,"1245 South Hover Road","Longmont","CO",80501,78,40.145,-105.131
157547,"1125 S HOVER RD","LONGMONT","CO",80501,82,40.1455,-105.133
177745,"1101 S. Hover","Longmont","CO",80501,99,40.1459,-105.133
216889,"1087 S. Hover Street","Longmont","CO",80501,108,40.1471,-105.132
18170,"995 S Hover St","Longmont","CO",80501,1,40.1505,-105.131
147503,"355 KEN PRATT BOULEVARD","LONGMONT","CO",80501,80,40.1506,-105.099
205396,"965 S. Hover","Longmont","CO",80501,106,40.1511,-105.131
116570,"965 S. Hover St. A-1","Longmont","CO",80501,57,40.1512,-105.132
51524,"841 KEN PRATT BLVD","LONGMONT","CO",80501,28,40.1519,-105.106
167988,"425 Ken Pratt Boulevard","Longmont","CO",80501,97,40.152,-105.099
183207,"1100 Ken Pratt Blvd.","Longmont","CO",80501,104,40.1523,-105.111
27076,"450 KEN PRATT BLVD","Longmont","CO",80501,5,40.1524,-105.096
246083,"125 KEN PRATT BLVD","LONGMONT","CO",80501,138,40.1524,-105.098
33150,"1050 Ken Pratt Bvd.","Longmont","CO",80501,2,40.1524,-105.109
221995,"1100 KEN PRATT BLVD","LONGMONT","CO",80501,109,40.1528,-105.111
587,"551 S Hover Rd","Longmont","CO",80501,3,40.1534,-105.133
186165,"700 Ken Pratt Blvd","Longmont","CO",80501,106,40.1537,-105.104
160719,"210 Ken Pratt Blvd","Longmont,","CO",80501,84,40.1547,-105.096
145106,"393 S Hover Road","Longmont","CO",80501,79,40.1548,-105.131
1385,"2285 East Ken Pratt Blvd","Longmont","CO",80504,4,40.1583,-105.049
10826,"6110 Firestone Blvd","Firestone","CO",80520,1,40.1593,-104.94
38710,"5962 FIRESTONE BLVD","Firestone","CO",80504,5,40.1601,-104.943
145131,"10858 Jake Jabs Blvd","Firestone","CO",80504,79,40.1602,-104.97
202845,"6160 Firestone Blvd","Firestone","CO",80504,106,40.1606,-104.94
56640,"3914 ST HWY 119","LONGMONT","CO",80504,28,40.1606,-104.983
192415,"3914 Colorado State Hwy 119","Longmont","CO",80504,106,40.1607,-104.984
225596,"11169 E. I-25 Frontage Road","Firestone","CO",80504,105,40.1633,-104.977
55369,"11099 E 1-25 FRONTAGE RD","FIRESTONE","CO",80504,28,40.1665,-104.974
53393,"635 MAIN ST","LONGMONT","CO",80501,28,40.1704,-105.103
